"","NAME","LONGITUDE","LATITUDE","ADDRESS","POSTALCODE","EMAIL","KEEPERNAME","TOTALROOMS","INC_CRC","FMEL_UPD_D"
"1","Jayleen Clarke Quay Hotel",103.847502570641,1.28871525038832,"25 New Bridge Road","59390","jayleenclarkequay@gmail.com","James Federick Chong Kah Yean","20","FB331A5207372FF2","20210128110627"
"2","JEN Singapore Orchardgateway by Shangri-La",103.839224077005,1.30050954183517,"277 Orchard Road , # 10-01","238858","singaporeorchardgateway@hoteljen.com","Kuok Oon Kwong","499","BE1CAD1F9EA0CAE3","20210128110627"
"3","JEN Singapore Tanglin by Shangri-La",103.823912360589,1.3042705309298,"1A Cuscaden Road","249716","singaporetanglin@hoteljen.com","Kuok Oon Kwong","565","B5529ACF9E6012E4","20210128110627"
"4","JH HOTEL",103.877460163672,1.311585869313,"8 LORONG 10 GEYLANG","399041","anguskt@gmail.com","CHEN ZHIQIONG","42","A22CE6E92D6AEBF0","20210128110627"
"5","Ji Hotel Orchard Singapore",103.844455112735,1.297722839747,"11 PENANG LANE INNOTEL","238485","","Koo Sheuan","81","66BD9D0F880BBBD4","20210128110627"
"6","Jin Dong Hotel",103.87880673682,1.31022734045131,"33 Lorong 12 Geylang","399007","","ong kum fatt","33","D7209ADD0712A1B6","20210128110627"
"7","Joyfor Singapore",103.873959999289,1.31118301196188,"135 Geylang Road","389226","joyfor.sg@gmail.com","Koo Seck Chong","17","D30116664B182FD0","20210128110627"
"8","JW Marriott Hotel Singapore South Beach",103.855516058723,1.29465290571138,"30 Beach Road","189763","jw.sinjw.contactus@marriott.com","STEPHANE LOUIS FABREGOUL","634","7A601D8BEC62E672","20210128110627"
"9","K Hotel",103.876502260862,1.30999424174174,"44 LORONG 6 GEYLANG","399199","","CAI WENCHAO","56","0BE03789A9C46C8B","20210128110627"
"10","Holiday Inn Express Singapore Katong",103.904574228644,1.30485336795088,"88 EAST COAST ROAD, # 07-05 KATONG SQUARE","423371","","Adel Aramouni","451","5849E01E116E3183","20210128110627"
"11","Holiday Inn Express Singapore Orchard Road",103.836680368343,1.30322795583465,"20 Bideford Road","229921","info.sinex@ihg.com","Najeeb Kurungottu","221","1E17B0CDF1E7CDA8","20210128110627"
"12","Holiday Inn Express Singapore Serangoon",103.858630348608,1.31014109037569,"270 JALAN BESAR","209019","","Garside Ashleigh Maree","119","F42B9FBA63112392","20210128110627"
"13","Holiday Inn Singapore Atrium",103.834068286993,1.28907019166027,"317 Outram Road","169075","hiatrium@ichotelsgroup.com","Tuncay Bockin","518","11EF65BD203685B9","20210128110627"
"14","Holiday Inn Singapore Orchard City Centre",103.841101584501,1.30227912538394,"11 Cavenagh Road","229616","info.hisinorchard@ihg.com","Gobind Naroomal Gary Harilela @Gary Harilela","324","789DE80F5E0211C0","20210128110627"
"15","Home Suite View Hotel",103.878121318914,1.31140043113114,"12 Lorong 12 Geylang","398993","homesuite12@gmail.com","SWEE WEIDI","175","01012B339B2217D5","20210128110627"
"16","Hoover Hotel",103.853069621772,1.32170313863895,"246 Balestier Road , # 02-01","329706","","Lim Choon Hua","42","EFBE8B5CA40442B0","20210128110627"
"17","Hotel 165",103.856274002503,1.31047892595777,"165 Kitchener Road","208532","jackson@hotel165.sg","Siah Wei Bin","68","9B96822662A98D40","20210128110627"
"18","Hotel 1888",103.843899635185,1.28285932265539,"20 TRENGGANU STREET, # 01-03 JINSHAN HOTEL","58479","justin.wong@hotel1888.com.sg","Adrian Siow Shen Ngin","40","0D678930AD97FD68","20210128110627"
"19","Hotel 81 - Balestier",103.853123339191,1.32138046634844,"226 Balestier Road","329688","hotel81@hotel81.com.sg","Chu Poh Yong","53","30C90C6B5398385C","20210128110627"
"20","Hotel 81 - Bugis",103.855618625297,1.29687853383032,"31 Middle Road","188995","hotel81@hotel81.com.sg","Chu Poh Yong","88","15B1260EA042F00D","20210128110627"
"21","Hotel 81 - Changi",103.911729077231,1.31869115633081,"428 Changi Road , # 01-01","419871","hotel81@hotel81.com.sg","Chu Poh Yong","80","26435B9826BFF5F1","20210128110627"
"22","Hotel 81 - Cherry",103.878417449833,1.31199127691196,"3 Lorong 12 Geylang","399014","hotel81@hotel81.com.sg","Chu Poh Yong","53","7B3DF51643724BE4","20210128110627"
"23","Hotel 81 - Chinatown",103.844098495279,1.28456367163908,"181 New Bridge Road","59418","hotel81@hotel81.com.sg","Chu Poh Yong","95","6BB3C9FBF88A4898","20210128110627"
"24","Hotel 81 - Cosy",103.841859436164,1.27966689951546,"8 Jiak Chuan Road","89263","hotel81@hotel81.com.sg","Chu Poh Yong","39","F844FDFCD3FCFA99","20210128110627"
"25","Hotel 81 - Dickson",103.854269341864,1.30490446592441,"3 Dickson Road","209530","hotel81@hotel81.com.sg","Chu Poh Yong","196","7991DBAA1EF8329B","20210128110627"
"26","Hotel 81 - Elegance",103.860271946103,1.31237964690163,"30 Foch Road , # 01-01","209276","hotel81@hotel81.com.sg","Chu Poh Yong","120","ED21428AA77FF425","20210128110627"
"27","Hotel 81 - Fuji",103.852599854946,1.32218490550845,"269 Balestier Road","329720","hotel81@hotel81.com.sg","Chu Poh Yong","78","787F346C2426ABE0","20210128110627"
"28","The Quay Hotel West Coast",103.768589721055,1.29233444235646,"428 PASIR PANJANG ROAD SANTA GRAND HOTEL WEST COAST","118769","","Heng Chern Chieh Germaine","42","92F45D6A0A4C34F7","20210128110627"
"29","The Quincy Hotel",103.835748313428,1.30775153247414,"22 Mount Elizabeth","228517","info.tqh@fareast.com.sg","Kurukulasuriya Shakila Mehani Fernando","108","0DDCF09C9E89EB9F","20210128110627"
"30","Golden Star Hotel",103.877336359038,1.31076953969736,"31 Lorong 8 Geylang","399095","goldenstarhotel@yahoo.com.sg","Timothy Seah How Ming","43","31835167831920D5","20210128110627"
"31","Goodwood Park Hotel",103.83410906863,1.30822214594427,"22 Scotts Road","228221","enquiries@goodwoodparkhotel.com.sg","Khoo Bee Geok, Mavis","233","0CB42F3CAFB966B5","20210128110627"
"32","Grand Hyatt Singapore",103.833283334569,1.3063453359855,"10 Scotts Road","228211","singapore.grand@hyatt.com","Willi Beat Martin","677","F5543044BAEC0506","20210128110627"
"33","Grand Mercure Roxy Hotel",103.904051128937,1.3043259893264,"50 East Coast Road","428769","H3610-FO16@accor.com","Ng Wai Peng","576","FEC8882D5B30CF49","20210128110627"
"34","Grand Park City Hall",103.850123925268,1.29262894189275,"10 Coleman Street","179809","info.gpch@parkhotelgroup.com","Jeane Lim Sook Tiang","343","ED8DF7F4128749AC","20210128110627"
"35","Grand Park Orchard",103.836202012782,1.30310525131104,"270 Orchard Road","238857","infor.gpor@parkhotelgroup.com","Lim Kang-Ling","308","AC132E5EFF9711B1","20210128110627"
"36","GREENDILI BACKPACKERS HOSTEL",103.857555410336,1.3159109329182,"427 RACE COURSE ROAD GREENDILI BACKPACKERS HOSTEL","218673","GREENDILIHOSTEL@GMAIL.COM","SUN KANGQING","9","76E9C8C26E89E1EE","20210128110627"
"37","Haising Hotel",103.854580698492,1.30462079031568,"33A Jalan Besar","208801","hs@haising.com.sg","Tan Boon Yong Dominic","56","4EDEA087007B5886","20210128110627"
"38","Harbour Ville Hotel",103.827744716094,1.27261402571663,"512 Kampong Bahru Road","99448","harbourv@singnet.com.sg","Lim Shirley","100","EBDEEC996FFCE73B","20210128110627"
"39","Harbour Ville Hotel Hamilton",103.861509695837,1.31156411968173,"40 HAMILTON ROAD","209210","","SOH SHIL NIE","43","EC415EC11AE52BC8","20210128110627"
"40","7 Wonders Hostel",103.858155071754,1.31019236449532,"257 Jalan Besar","208930","","Shahjahan Bin Mohamed Sitthiq","5","4BC4048148518C7C","20210128110627"
"41","7 Wonders Hostel @ Upper Dickson",103.852350568271,1.30635176142908,"12A UPPER DICKSON ROAD CLIFDEN HOSTEL","207472","hr@7wondershostel.com","SHAHJAHAN BIN MOHAMED SITTHIQ","8","59983D0C6DBD17D5","20210128110627"
"42","ABC HOSTEL",103.859267550804,1.30366887875577,"3  Jalan Kubor (1st Storey)","199201","booking@abchostel.com.sg","TEO WEN HAO","23","CA625887E4BDE889","20210128110627"
"43","Adamson Lodge",103.852965178949,1.30448415943975,"6 Perak Road","208127","query_chris@yahoo.com.sg","Lee Choon Chuan","7","FE502164CC10A45A","20210128110627"
"44","AL Asia Hotel",103.8846809303,1.31324104846935,"488 GEYLANG ROAD","389447","","Lim Siew Iy @ Lim Siew Ching","16","C7D6BD8F9A1D3615","20210128110627"
"45","Aliwal Park Hotel",103.860268091316,1.30336025012185,"77 Aliwal Street","199948","aliwalpark77@gmail.com","Wong Lee Peng","53","338C31C6EB6057EA","20210128110627"
"46","Amara Sanctuary Resort, Sentosa",103.822016591014,1.25212800048918,"1 Larkhill Road","99394","sentosa@amarasanctuary.com","Joseph Thiang Thin Poh","140","7E2F91BFBF93F966","20210128110627"
"47","Amara Singapore",103.843500117167,1.27493473787886,"165 Tanjong Pagar Road","88539","singapore@amarahotels.com","Joseph Thiang Thin Poh","380","B8E4090856EEF4CB","20210128110627"
"48","Amrise Hotel",103.877872197764,1.31392297209217,"112 Sims Avenue , # 01-01","387436","reservation@amrisehotel.com","LIM TIM BOCK","58","BD6D5FF91F9D87FB","20210128110627"
"49","Ann Siang House",103.845721510662,1.2807288857312,"28 ANN SIANG ROAD","69708","","Manchharam Ashish","20","73EE86A8291261E8","20210128110627"
"50","Aqueen Heritage Hotel - Joo Chiat",103.8986087202,1.31496412930389,"51 Joo Chiat Road","427373","","Chan Boon Tat","70","479DDB1B2064D8F8","20210128110627"
"51","AQUEEN Heritage Hotel - Little India",103.851868266106,1.30736540957505,"22 BELILIOS LANE AQUEEN HERITAGE HOTEL - LITTLE INDIA","219962","","Chan Boon Tat","70","29AF37AA78351766","20210128110627"
"52","AQUEEN Hotel - Kitchener",103.858027585848,1.30929085528988,"230 Jalan Besar","208906","","Chan Boon Tat","74","CC35ED728A01C109","20210128110627"
"53","Arcadia Hotel",103.861344016453,1.31144511621404,"32 Hamilton Road","209201","wyneo@arcadiahotel.com.sg","Neo Wan Yong","36","1E36496D94BE0983","20210128110627"
"54","Arianna Hotel",103.855916077404,1.30898195611065,"83 Syed Alwi Road","207662","accounts@arianna.com.sg","Ng Swee Yak","51","7FEC20B2AE2C0DC7","20210128110627"
"55","Ark Hostel",103.872957810113,1.31083993031984,"83B Geylang Road","389200","singaporelodgingpteltd@gmail.com","Kelvin Tng Eng Khai","31","76C437DC0103BE05","20210128110627"
"56","Arton Hotel",103.860855935208,1.31200012479956,"176 Tyrwhitt Road","207576","","Ooi Teck Hin","109","CE24146FE1909105","20210128110627"
"57","Ascott Orchard Singapore",103.837118390961,1.30398869691117,"11 CAIRNHILL ROAD","229724","","Wong Mei Ling Judy","220","3FB23879C3C224C7","20210128110627"
"58","Ascott Singapore Raffles Place",103.851544401021,1.28208454707961,"2 Finlayson Green","49247","enquiry@the-ascott.com","Judy Wong Mei Ling","146","EA1EEC707A782A8A","20210128110627"
"59","Asia Star Hotel",103.854724878876,1.30850392397464,"44 Rowell Road","207995","johnnyangys@hotmail.com","Ang Ying Soon","14","02A170199B52C836","20210128110627"
"60","Beary Best! Hostel Kampong Glam",103.859394682355,1.30120414903648,"64 ARAB STREET, # 00-00","199761","BearyKG@abearygoodhostel.com","MARECHAL PIERRE JEAN M","4","6170F48FB938CB60","20210128110627"
"61","BEAT. Sports Hostel",103.85890444877,1.31064624214852,"290A Jalan Besar","208953","sports@beathostel.co","JEREMY TEO","13","FEA8E458DDD06100","20210128110627"
"62","Betel Box Backpackers Hostel",103.900168104154,1.31220268168059,"200 Joo Chiat Road","427471","info@betelbox.com","Tan Say Kiong","6","C35238BC7123EC69","20210128110627"
"63","Blanc Inn",103.860152247876,1.3118099599849,"151 Tyrwhitt Road","207564","blancinn@gmail.com","Iek Tong Wah","4","0A0416C2BAE46AC6","20210128110627"
"64","Bliss Hotel Singapore",103.844304195694,1.28445774430707,"62 Upper Cross Street","58353","reservation@blisshotel.com.sg","Kee Khek Thai","42","2B14BC13300BD208","20210128110627"
"65","Blue Jazz Hostel",103.85790553137,1.30982597177326,"243 JALAN BESAR","208916","","Wang CuiRong","5","5D64B51A34C4AA8B","20210128110627"
"66","Breeze Inn",103.858436453128,1.30258711150837,"3 JALAN PINANG ADAMSON INN","199135","breezeinn8@gmail.com","LIN YI YUN","16","0B1AF9552E85769A","20210128110627"
"67","Bright Star Hotel",103.878864871244,1.31351593312261,"20 Lorong 17 Geylang","388575","brightstarhotel@yahoo.com.sg","Pauline Seah Swee Lian","86","CB853F541BB75F19","20210128110627"
"68","Broadway Hotel",103.853224451953,1.30917900212984,"195 Serangoon Road","218067","broadwayhotelsingapore@yahoo.com","Sim Seng Quee","65","6FA883FF81602956","20210128110627"
"69","BudgetOne Hotel",103.880423593148,1.31221720783339,"10 LORONG 18 GEYLANG BUDGETONE HOTEL","398793","","Lim Kee Huat","49","A49D496D62911FD2","20210128110627"
"70","BUTTERNUTTREE HOTEL",103.841824512271,1.28063133791161,"22 TECK LIM ROAD PARK 22 HOTEL CHINATOWN","88392","","WIWIN CHRISTANTI GHOBIND","55","41FED2B8CE69E2DF","20210128110627"
"71","Cameron Hotel",103.954974045383,1.33674234821614,"393F Upper Changi Road","486917","info@cameronhotel.com.sg","Nicholas Ong Ann Wei","19","95B50FAF44FE2B29","20210128110627"
"72","Campbell Inn",103.852641538954,1.30499470478209,"50 CAMPBELL LANE CHECKERS BACKPACKERS","209922","","Wang Cuirong","10","AEC0344008F84BBA","20210128110627"
"73","Capella Hotel, Singapore",103.824378229099,1.24948297406912,"1 The Knolls","98297","gr.singapore@capellahotels.com","Fernando Gibaja Garcia-Zarco","193","9CA2E74FFAE5A355","20210128110627"
"74","Capri By Fraser Changi City, Singapore",103.963583777969,1.3342655648281,"3 Changi Business Park Central 1  Changi City","486037","resvn.changicity@capribyfraser.com","Vernon Lee Koon Yong","313","8E9AFDE80718099C","20210128110627"
"75","Capri By Fraser China Square, Singapore",103.847061684457,1.28401467620777,"181 SOUTH BRIDGE ROAD","58743","reservations.singapore@capribyfraser.com","Vernon Lee Koon Yong","304","A88878CB6DF3EA60","20210128110627"
"76","CapsulePod@Aljunied",103.883955325222,1.31594220611958,"76A LORONG 27 GEYLANG","388194","","YAN TONGJI","8","5EA68B54FDAD1C8E","20210128110627"
"77","Carlton City Hotel Singapore",103.84369850009,1.27595845561159,"1 Gopeng Street","78862","douglas.glen@carltoncity.sg","Douglas Maxwell Glen","386","552A51C59C1F53D4","20210128110627"
"78","Carlton Hotel",103.852518906013,1.29592644324195,"76 Bras Basah Road","189558","mail@carltonhotel.sg","Darren Leroy Ware","940","2D7EFA59EE55019B","20210128110627"
"79","Champion Hotel",103.898375899105,1.31473398017971,"60 Joo Chiat Road","427726","janet@championhotel.com.sg","Lim Liang Jason","81","9FE5576D9A6777AE","20210128110627"
"80","Changi Cove",103.975654971312,1.38857514608333,"351 Cranwell Road","509866","enquiry@changicove.com","Chew Tee Yen","141","0716878A862C1E5E","20210128110627"
"81","Cherryloft Resorts",103.958317578175,1.37916855177722,"159 Jalan Loyang Besar","509404","resorts@cherryloft.com","ONG RYAN ZHENGYONG","186","F90A1F0BFEB16707","20210128110627"
"82","Circular House",103.848964671913,1.28795051990571,"6 CIRCULAR ROAD","49362","","AMIT BHAGAT","12","0234F0BD23901BE2","20210128110627"
"83","Citadines Rochor Singapore",103.851438825178,1.30512221745202,"2 SERANGOON ROAD, # 03-01 TEKKA PLACE","218227","frontoffice.crsg@the-ascott.com","WONG MEI LING JUDY","320","15C288F990452AB4","20210128110627"
"84","City Backpackers",103.847281913664,1.2878039882589,"18 Hongkong Street","59661","citybackpackers@hotmail.com","Tan Kee Chong Derrick","11","008BD07599CBF9D1","20210128110627"
"85","Hawaii Hostel",103.852244669339,1.30156897150731,"169A Bencoolen Street","189641","","Ng Kun Heng","83","CF2AA3D06F0E5409","20210128110627"
"86","Heritage Collection on Chinatown",103.845722570878,1.28277324511435,"227 SOUTH BRIDGE ROAD, # 01-03","58776","","Yap Hui Wen","27","FDAC3EDCBAD2FE8F","20210128110627"
"87","Heritage Collection on Seah",103.855088788757,1.29589846119217,"39 SEAH STREET","188395","","Yap Hui Wen","18","12DFF9CFA020793F","20210128110627"
"88","Hilton Garden Inn Singapore Serangoon",103.851928685296,1.30833559981707,"3 Belilios Road","219924","singi.hotel@hilton.com","Eva Moral","328","52BC35B40F7286B1","20210128110627"
"89","Hilton Singapore",103.829314887852,1.30587902148372,"581 Orchard Road","238883","sinhi@hilton.com","Peter Webster","423","7FA3C24CCB49505F","20210128110627"
"90","Holiday Inn Express Singapore Clarke Quay",103.841983925747,1.28924402665703,"2 Magazine Road","59573","info.sincq@ihg.com","Alexandra Pauline Kloprogge","442","F0535AE38FFEDB05","20210128110627"
"91","Amoy Hotel",103.84864539809,1.28300038937659,"76 Telok Ayer Street","48464","info.amoy@fareast.com.sg","Clemence Cheah","37","3144BDE51ABFBCA3","20210723135120"
"92","Andaz Singapore",103.857859544648,1.29916295638181,"5 FRASER STREET","189354","singapore@andaz.com","Karl Stephan Oliver","342","60AA84F2F58A4CB6","20210723135120"
"93","AQUEEN Prestige Hotel - Lavender",103.861297941112,1.31180974026488,"35 HAMILTON ROAD","209204","","Chan Boon Tat","72","3645A69C04BA1668","20210723135120"
"94","ARABIC INN",103.859681427203,1.30078636753127,"48 ARAB STREET KAMPONG @ ARAB","199745","","sun kangqing","6","3639B3A33C005FFD","20210723135120"
"95","Beach Villas",103.81654785488,1.25923773923788,"20 Sentosa Gateway","98135","enquires@rwsentosa.com","Sim Wai Peng Tina","35","92A0A0E98B37D4A7","20210723135120"
"96","Bluewaters Pod",103.856934787679,1.29800182513386,"2 TAN QUEE LAN STREET, # 02-01 ATLANTIS PODS @ BUGIS","188091","bluewatershospitalitypl@gmail.com","ANG QIU PING","5","8635C25509D8CF52","20210723135120"
"97","CHAMPION HOTEL CITY",103.847101673167,1.28705545548872,"37 NORTH CANAL ROAD","59293","janet@championhotel.com.sg","Lim Liang Jason","33","684B4BB4360E2039","20210723135120"
"98","Checkers Hostel @ Beach Road",103.860424414343,1.30094429153444,"285 BEACH ROAD","199550","MSRPHILIP@YAHOO.COM","MD SHAMSUR RAHMAN","23","16782ABCCC2857FA","20210723135120"
"99","Crockfords Tower",103.819279861729,1.25593387293635,"10 Sentosa Gateway","98270","enquires@rwsentosa.com","Sim Wai Peng Tina","121","373665F51CB5CE30","20210723135120"
"100","D'Hotel",103.835010036802,1.2843221081918,"231 OUTRAM ROAD WANGZ HOTEL","169040","","WONG MEI LING JUDY","41","BA1293324C5E9236","20210723135120"
"101","Dusit Thani Laguna Singapore",103.962657084899,1.32397331115705,"11 LAGUNA GOLF GREEN LAGUNA NATIONAL GOLF & COUNTRY CLUB","488047","","Piatti Eric Michel","198","BC13D102FD335F2A","20210723135120"
"102","Equarius Hotel",103.816896687818,1.25767113430044,"16 Sentosa Gateway","98133","enquiries@rwsentosa.com","Sim Wai Peng Tina","183","232A2F5F23CB1EEB","20210723135120"
"103","Festive Hotel",103.819026715795,1.25602110299293,"12 Sentosa Gateway","98271","enquiries@rwsentosa.com","Sim Wai Peng Tina","447","D61B8AECFE7D4D7B","20210723135120"
"104","Four Points by Sheraton Singapore, Riverview",103.836603813301,1.28937098412522,"382 Havelock Road","169629","finance@fourpointssingaporeriverview.com","Ho Chung Kain","476","BA66776174B64DE1","20210723135120"
"105","Genting Hotel Jurong",103.739259626278,1.33156162898379,"2 Town Hall Link","608516","enquiries@rwsentosa.com","Sim Wai Peng Tina","557","686D365D8025BA1B","20210723135120"
"106","Grand Copthorne Waterfront Hotel Singapore",103.835147957844,1.29028192700494,"392 Havelock Road","169663","enquiry.gcw@millenniumhotels.com","PJEY MAYANDI","574","6E857A24B95AD34E","20210723135120"
"107","Hard Rock Hotel",103.818913907351,1.25746583281896,"28 Sentosa Gateway","98139","enquiries@rwsentosa.com","Sim Wai Peng Tina","364","4A9092583E11CF5C","20210723135120"
"108","Heritage Collection on Boat Quay Quayside Wing",103.849195879682,1.28820207478702,"76 BOAT QUAY","49864","","YAP HUI WEN","41","8D11DCD7DAFD062A","20210723135120"
"109","Heritage Collection on Clarke Quay",103.848499242966,1.28808237913163,"36 SOUTH BRIDGE ROAD LAI NGUANG BUILDING","58670","","Yap Hui Wen","19","0A441E255985EF58","20210723135120"
"110","Hotel 1929",103.841812331317,1.28079216116778,"50 KEONG SAIK ROAD Q LOFT HOTEL1929@CHINATOWN","89154","","Tang Han Min Alan","33","E4F5799E91ED248D","20210723135120"
"111","Hotel Calmo Chinatown",103.844175157457,1.28256763758547,"25 TRENGGANU STREET HOTEL 1887","58476","","CAI WENCHAO","80","640B893DD1F6E94A","20210723135120"
"112","HOTEL CLASSIC",103.897717275598,1.31564277206077,"12 JOO CHIAT ROAD","427353","classic@venuehotel.sg","CHU POH YONG","75","BB709C85BCD492E7","20210723135120"
"113","Hotel Clover 769 North Bridge Road",103.859584470771,1.30367081350441,"769 NORTH BRIDGE ROAD HOTEL CLOVER 769 NORTH BRIDGE ROAD","198737","info@hotelclover769.com","TEO JUN LIANG, JEREMY","35","4DFBFFE30BD990F3","20210723135120"
"114","Hotel Compass",103.881864219755,1.31100479193402,"36 LORONG 22 GEYLANG HOTEL COMPASS","398693","","JIN CHENCHEN","49","264B1100AB4EFC21","20210723135120"
"115","Hotel Michael",103.820219415166,1.25493344657437,"8 Sentosa Gateway","98269","enquiries@rwsentosa.com","Sim Wai Peng Tina","464","B723D8A2F78E7A9D","20210723135120"
"116","ibis budget Singapore Ametrine",103.877505973005,1.31145566986313,"10 LORONG 10 GEYLANG","399043","","Gan Kuan Yew","38","C4D60DCEDFDBCD3D","20210723135120"
"117","ibis budget Singapore Joo Chiat",103.901246960843,1.31149498302754,"219 Joo Chiat Road","427485","contact@fragrancehotel.com","GAN KUAN YEW","90","812779CA7E764F6F","20210723135120"
"118","K Hotel 1515",103.878027379987,1.31316413429455,"15 LORONG 15 GEYLANG ZEN ROOMS 1515","388607","","CAI WENCHAO","80","03CA58F0F105F1AA","20210723135120"
"119","K SPACE INN OWEN",103.853166698166,1.31333978908028,"91A OWEN ROAD","218903","","CAI WENCHAO","6","ACC37C9B5A9A9BBF","20210723135121"
"120","KINN",103.848550528151,1.28748835671493,"39 SOUTH BRIDGE ROAD","58673","RESERVATIONS@STAYWITHKINN.COM","BRANDON SMITH","7","A6E4166EB90C7B14","20210723135121"
"121","M Hotel Singapore",103.84506021481,1.27368776927434,"81 Anson Road","79908","enquiry.mhs@millenniumhotels.com","Kung Teong Wah","415","3FF220A6AA487B77","20210723135121"
"122","New Cape Inn",103.834075884942,1.28556429182439,"3 SENG POH ROAD GREEN WORLD","168891","","CHRISTOPHER ELY","76","7F64CEFDCFC438DA","20210723135121"
"123","Oh My Suites",103.853089993362,1.30782184572235,"3 VEERASAMY ROAD REDDOORZ PREMIUM @ SERANGOON","207309","","LEE YI, CHRISTABELLE","24","9575796F63448ADC","20210723135121"
"124","Orchard Hotel Singapore",103.82816440606,1.30766860889292,"442 Orchard Road","238879","","Wong On Tat Andy","656","B8CCD00C487D6E94","20210723135121"
"125","Park 22 Hotel Little India",103.850729187175,1.30761951351103,"60 KERBAU ROAD PARK 22 HOTEL LITTLE INDIA","219184","","ROY LENG ZHENG","31","B6DD5FF9989E2F12","20210723135121"
"126","PARKROYAL Collection Pickering, Singapore",103.846290282213,1.28563913664569,"3 Upper Pickering Street","58289","","JACOPIN JEAN-PHILIPPE DANIEL","367","E9C6C11C642C77C6","20210723135121"
"127","Regin Hotel",103.875894248569,1.3132565842406,"56 SIMS AVENUE ZEN ROOMS OASIS","387416","","Heng Siam Khim","46","2247F2C15EE9F707","20210723135121"
"128","Rucksack Inn 2 @Lavender",103.860315945966,1.31436249656989,"280A Lavender Street","338800","","Dorit Grueber","12","6CD4132232A3CC9E","20210723135121"
"129","Rucksack Inn@Lavender",103.860315945966,1.31436249656989,"280  Lavender Street","338800","lavender@rucksackinn.com","Dorit Grueber","7","6CD41322B5A99248","20210723135121"
"130","ST Signature Chinatown",103.845275724046,1.28184250020967,"273A SOUTH BRIDGE ROAD","58822","xinfang.ng@straitsorg.com","Goh Keng Hong","25","C7D8D661D1477050","20210723135121"
"131","ST Signature Jalan Besar",103.854840702869,1.30536577750822,"15 UPPER WELD ROAD BUNC HOSTEL","207372","","Goh Keng Hong","69","EA004B2D63B9F77B","20210723135121"
"132","The Hive@bugis",103.858395163567,1.30262934394456,"5 JALAN PINANG TREE IN LODGE","199137","","YAN TONGJI","8","18A4539469AB88C3","20210723135121"
"133","The Pan Pacific Hotel Singapore",103.857758269035,1.29111728356103,"7 Raffles Boulevard","39595","enquiry.ppsin@panpacific.com","Paul Margaret Spence","790","1DC444E00EC97F5B","20210723135121"
"134","The Warehouse Hotel",103.837472602698,1.28920188923002,"320 HAVELOCK ROAD","169628","","Tarun Kalra","37","D1008FC95CE8CA2A","20210723135121"
"135","Village Hotel Changi",103.986061074378,1.3904021092424,"1 Netheravon Road","508502","info.vhc@fareast.com.sg","Teo Kah Eng","380","D54C65340062E608","20210723135121"
"136","Village Hotel Katong",103.902912251967,1.30377936120631,"25 Marine Parade Road","449536","info.vhk@fareast.com.sg","Terence Govinden","229","EA762650855235F7","20210723135121"
"137","Hotel 81 - Geylang",103.879565363057,1.31178580684439,"20 Lorong 16 Geylang","398863","hotel81@hotel81.com.sg","Chu Poh Yong","88","C0A53C0A43885765","20210128110627"
"138","Hotel 81 - Gold",103.881122145385,1.3119564255497,"20 Lorong 20 Geylang","398738","hotel81@hotel81.com.sg","Chu Poh Yong","98","412D36BEFF0E2D10","20210128110627"
"139","Classique Hotel",103.85816175664,1.30942994343081,"240 Jalan Besar , # 01-01","208913","reservations@classiquehotel.com.sg","Ang Beng MAY","42","3C427F683C0D0D2E","20210128110627"
"140","COLLER BOUTIQUE HOSTEL",103.834726678247,1.28500519507722,"259 OUTRAM ROAD","169056","","KHOO HOCK CHYE","11","E73470306E8D3344","20210128110627"
"141","Concorde Hotel Singapore",103.842228053204,1.30061437146928,"100 Orchard Road","238840","singapore@concorde.net","Karl Lee Muir","418","F159AF5E324D56DB","20210128110627"
"142","Conrad Centennial Singapore",103.858774751329,1.29352504343592,"2 Temasek Boulevard","38982","sinci_acc@conradhotels.com","Peter Toi","512","B345D633745337B5","20210128110627"
"143","Copthorne King Hotel Singapore",103.836642496764,1.28825959921985,"403 Havelock Road","169632","rooms@copthornekings.com.sg","Yeoh Cheng Kung","313","AC71C768A70E334B","20210128110627"
"144","Courtyard By Marriott Singapore Novena",103.843165090044,1.32059476707049,"99 IRRAWADDY ROAD, # 22-00 ROYAL SQUARE AT NOVENA","329568","","Khong Cheng Hoe Peter","250","5610EBA03AB6F4B4","20210128110627"
"145","Coziee Lodge",103.8728758866,1.31077389402222,"77A Geylang Road","389198","denniskyj@gmail.com","Kwek Yi Jun, Dennis","5","2120FA2DB22770F6","20210128110627"
"146","Crowne Plaza Changi Airport",103.987947172552,1.35868034734966,"75 Airport Boulevard","819664","sincp@ihg.com","Cristol Bruno Olivier","563","AF34378EAA44E3DD","20210128110627"
"147","Days Hotel Singapore At Zhongshan Park",103.847365855383,1.32697770059675,"1 Jalan Rajah","329133","info@dayshotelsingapore.com","Tony John Cousens","405","C56F326E58E1F03C","20210128110627"
"148","Destination Singapore Beach Road",103.864169303074,1.30236655161918,"700 BEACH ROAD 700 BEACH","199598","Beelay.Pua@yourdestinationhotel.com","Steven Tang","300","122395C0A3F52261","20210128110627"
"149","Diamond Hotel",103.880838668454,1.31186042184822,"25 Lorong 18 Geylang","398806","diamondhotelreservations@gmail.com","Tan Hui Sion","42","17422EA029290C65","20210128110627"
"150","Dorsett Singapore",103.840007598921,1.27962668340609,"333 New Bridge Road","88765","info.singapore@dorsetthotels.com","Khoo Lee Ping Jessie","285","544E8182666D9389","20210128110627"
"151","Duxton Reserve",103.843187860266,1.27887034636785,"83 Duxton Road","89540","","Harpreet Kaur Bedi","49","62177A4089D486B1","20210128110627"
"152","EIGHTEEN BY THREE CABINS",103.847645143301,1.27987745135108,"3 STANLEY STREET","68722","k.yap@18by3.com","Lim Keong Wee","18","21EE5FC68D6045AF","20210128110627"
"153","Fairmont, Singapore",103.853331832592,1.2940764375654,"80 Bras Basah Road","189560","singapore@fairmont.com","Marcus Moris Hanna","772","64140E184305FFB3","20210128110627"
"154","five/6 Hotel Splendour",103.876690711173,1.31090999883113,"5 LORONG 6 GEYLANG","399167","","Teo Chou Chun","71","D0F89133A1214EA9","20210128110627"
"155","Fortuna Hotel",103.854953210301,1.31170732725136,"2 Owen Road","218842","reservations@fortunahotel.com.sg","Chong Hiew Kwang","105","4DC1FFEF67AAC417","20210128110627"
"156","Four Chain View Hotel",103.890924420622,1.31502461447216,"757 Geylang Road","389659","fchain@fourchain.com.sg","Ng Ah Hoi","44","D0D43E25D65EDFE9","20210128110627"
"157","Four Seasons Hotel",103.828652722779,1.30521021365117,"190 Orchard Boulevard","248646","","DRAMINSKY PETER CHRISTIAN","259","20843A22330FB9E2","20210128110627"
"158","Fragrance Hotel - Balestier",103.852659081425,1.32197356951015,"255 Balestier Road","329710","contact@fragrancehotel.com","SUN YI","48","8531B2A830493742","20210128110627"
"159","Fragrance Hotel - Classic",103.849620250658,1.32586501711441,"418 Balestier Road","329808","contact@fragrancehotel.com","SUN YI","48","786F2851FED95010","20210128110627"
"160","Fragrance Hotel - Kovan",103.878733101613,1.35406396857104,"760 Upper Serangoon Road","534629","contact@fragrancehotel.com","SUN YI","43","D4736F73314509FD","20210128110627"
"161","Fragrance Hotel - Lavender",103.863070799569,1.30978959074307,"51 Lavender Street","338710","contact@fragrancehotel.com","Sun Yi","35","4635D5C533AB9359","20210128110627"
"162","Fragrance Hotel - Oasis",103.848605457803,1.32588609260467,"435 Balestier Road","329816","contact@fragrancehotel.com","SUN YI","36","FD5312B946C9B885","20210128110627"
"163","Fragrance Hotel - Ocean View",103.768512802074,1.29241376307725,"432 Pasir Panjang Road","118773","contact@fragrancehotel.com","Sun Yi","47","45B8CB84B412DE7F","20210128110627"
"164","Fragrance Hotel - Rose",103.852564813209,1.32207178695444,"263 Balestier Road","329715","contact@fragrancehotel.com","Sun Yi","68","A4679646C54FA4E0","20210128110627"
"165","Fragrance Hotel - Viva",103.813969784211,1.2698880661334,"75 Wishart Road","98721","contact@fragrancehotel.com","Sun Yi","33","577F6AF7F6C5259F","20210128110627"
"166","Furama City Centre Singapore",103.844588552748,1.28647356154828,"60 Eu Tong Sen Street","59804","financemgr.fcc@furama.com","Ng Wei Yong","445","53FD02980AA77792","20210128110627"
"167","Furama Riverfront Singapore",103.836092838867,1.28763453813819,"405 Havelock Road","169633","furama.riverfront@furama.com","Ng Wei Yeow","615","32401663556849F5","20210128110627"
"168","G4 Station Backpackers Hostel",103.849908920215,1.3043490812321,"11 Mackenzie Road","228675","info@g4station.com","Lee Fut Hua","23","687BF6B7DA138240","20210128110627"
"169","GALLOP CHANGI BEACH RESORT",103.980568397632,1.38894206635745,"49 HENDON ROAD","509671","","MANIMAHALAI D/O CHAKRAPANI","40","9D3E18D1A9DEAF28","20210128110627"
"170","GALLOP HILL TOP RESORT",103.795854254263,1.33434829779462,"100 TURF CLUB ROAD","287992","enquiry@gallopresort.com","MANIMAHALAI D/O CHAKRAPANI","40","70F5E6522CC16FBF","20210128110627"
"171","GALLOP KRANJI FARM RESORT",103.718425687867,1.41927815815058,"10 NEO TIEW LANE 2 D' KRANJI FARM RESORT","718813","enquiry@gallopresort.com","MANIMAHALAI D/O CHAKRAPANI","37","C46B5294DFE0E694","20210128110627"
"172","Gap Year Hostel",103.859427833289,1.31564004044032,"322 Lavender Street","338821","gapyearhostel@gmail.com","Yee Seng Fu","7","39C5367D3D0CA169","20210128110627"
"173","Gay World Hotel",103.873741281934,1.31119516204353,"115 Geylang Road","389218","","Seah Ming Kwong","27","4AA0EEBB872A16F9","20210128110627"
"174","GOLDEN HOSTEL",103.830811464545,1.27784875913754,"146 JALAN BUKIT MERAH, # 01-1088","160146","","Tham Keng Pong","7","83EE621BBFF77A54","20210128110627"
"175","Golden Royal Hotel",103.855250945612,1.30914206986635,"51 Desker Road","209645","eugene@goldenroyal-hotel.com","Ee Kee Chai","54","73DBAFAC5FE99362","20210128110627"
"176","Cube @ Kampong Glam",103.859372517722,1.30162127482298,"55 BUSSORAH STREET","199471","","SONIA TAY MING HUI","7","AA379FBC613AD712","20210128110627"
"177","CUBE @ smith street",103.843006363679,1.28316218264506,"76A SMITH STREET","58971","","TAY MING HUI SONIA","7","10C6ADD5F223675C","20210128110627"
"178","Cube Family Boutique Capsule Hotel @ Chinatown",103.843161495087,1.28303982961697,"68A Smith Street","58967","booking@yeschinatownpoint.com","TAY MING HUI SONIA","24","2440729DA9DCF732","20210128110627"
"179","Darlene Hotel (Geylang)",103.87696990266,1.31090126773808,"32 Lorong 8 Geylang","399096","darlenehotel@gmail.com","Teh Gek Keng","62","9F37B2920EA15700","20210128110627"
"180","Travelodge Harbourfront Singapore",103.823792222833,1.26633679754561,"50 TELOK BLANGAH ROAD BAY HOTEL SINGAPORE","98828","","Wong Siew Khee","334","FF47311E1E8E7DB0","20210128110627"
"181","Urban Hostel",103.883723595489,1.31612667222578,"67A Lorong 27 Geylang","388189","","Tan Kee Chong Derrick","11","5296EC9681AE2B78","20210128110627"
"182","V Hotel Bencoolen",103.850763169012,1.29894385553217,"48 Bencoolen Street","189627","vhotel@vhotel.sg","Ng Lip Sek","272","6C886F3147D18975","20210128110627"
"183","V Hotel Lavender",103.862525582449,1.3078092747122,"70 Jellicoe Road","208767","vhotel@vhotel.sg","Edmund Yip Chak Mun","888","942397A2ACC2C0FB","20210128110627"
"184","Venue Hotel",103.902428918272,1.30957900907828,"305 Joo Chiat Road","427556","contact@venuehotel.sg","Chu Poh Yong","81","131753C344D858D8","20210128110627"
"185","Venue Hotel The Lily",103.900582467694,1.31154791813894,"238  Joo Chiat Road","427495","venuelily@venuehotel.sg","Chu Poh Yong","84","2B19BCD44D386A59","20210128110627"
"186","Victoria Hotel",103.852442326555,1.29709985440985,"87 VICTORIA STREET VICTORIA HOTEL","188016","reservations@victoriana.sg","Loo Wai Peng","89","76D40E76B9E09BF3","20210128110627"
"187","Villa Samadhi Singapore",103.800885641861,1.268937683637,"20 LABRADOR VILLA ROAD","119193","","Federico Asaro","20","38719C979D096BF8","20210128110627"
"188","Village Hotel Albert Court",103.85071667183,1.30390260082807,"180 Albert Street","189971","info.vhac@fareast.com.sg","Terence Govinden","210","FB48D644D3E9B88D","20210128110627"
"189","Village Hotel Bugis",103.857668954773,1.30192812751591,"390 Victoria Street","188061","info.vhb@fareast.com.sg","Gill Ishwinder","393","8E7B1395FC168254","20210128110627"
"190","Village Hotel Sentosa",103.819943383466,1.25225951518978,"10 ARTILLERY AVENUE, # 02-01","99951","","JIM KHOO WEI KWAN","606","3ACCB4428D4691B9","20210128110627"
"191","Vintage Inn@Clarke Quay",103.847112672325,1.28741331170278,"33 HONGKONG STREET, # 3-33B","59672","","HO TING CHEE","5","507C9909B9CA8A8C","20210128110627"
"192","VIP Hotel",103.834573063566,1.3156477325095,"5 Balmoral Crescent","259895","booking@viphotel.com.sg","Peter Yang","57","AAFED76C16C46740","20210128110627"
"193","W Singapore Sentosa Cove Hotel",103.842428148098,1.24616550353468,"21 Ocean Way","98374","","Heath Nicholas Robin","240","EC5BB01E7622254E","20210128110627"
"194","Wanderlust",103.854629633951,1.30512093794701,"2 DICKSON ROAD","209494","","Ashish Manchharam","29","E634CAE2151689A8","20210128110627"
"195","Wink Hostel",103.844144231952,1.28394841482097,"8A Mosque Street","59488","","Allan Lee @ Lee Kheen Woon","9","8CD89B41D968313E","20210128110627"
"196","Wink Hostel @ Downtown",103.84757635916,1.27968475056385,"3B MCCALLUM STREET","69044","","Chon Yik Mau","10","F61D800BB2361BCC","20210128110627"
"197","XY HOTEL BUGIS by ASANDA HOTELS AND RESORTS",103.859686467655,1.30420913008075,"11 JALAN KLAPA THE ARDENNES","199323","bugis_accounts@xyglobalhotel.com","HAN BIN","15","3359BC36EEED4017","20210128110627"
"198","Yew Lian Hotel",103.885504024451,1.31400085109484,"549A Geylang Road","389504","","Chang Ying","18","7D48A90F765B9B0D","20210128110627"
"199","York Hotel",103.835187499512,1.30692538671184,"21 Mount Elizabeth","228516","enquiry@yorkhotel.com.sg","Khoo Elizabeth","407","4CDA841E39CD3FBA","20210128110627"
"200","YOTEL Singapore Orchard Road",103.831347094612,1.30634429879401,"366 ORCHARD ROAD","238904","brendan.daly@yotel.com","DALY BRENDAN FRANCIS","610","6548D63CFF38A41D","20210128110627"
"201","YotelAir Singapore Changi Airport",103.989077555194,1.36034099671656,"78 AIRPORT BOULEVARD, # 04-280","819666","jca.finance@yotel.com","Nicholas James Cheesman","130","F81397E00B2B73F3","20210128110627"
"202","30 BENCOOLEN",103.850402269195,1.29850072017742,"30 BENCOOLEN STREET","189621","andrew.bastian@30bencoolen.com.sg","TAN KHENG HWEE","131","45B03EF3320B1450","20210105175725"
"203","Aqueen Hotel - Paya Lebar",103.891617685857,1.32208820086546,"33 Jalan Afifi","409180","","Chan Boon Tat","162","112720F786F4FD2B","20210105175726"
"204","Hotel 81 - Heritage",103.861299879306,1.30271606708358,"71 Jalan Sultan Road","198985","hotel81@hotel81.com.sg","Chu Poh Yong","64","267ED9728B9AFBFC","20210128110627"
"205","Hotel 81 - Hollywood",103.877447760285,1.31005583680827,"61 Lorong 8 Geylang","399121","hotel81@hotel81.com.sg","Chu Poh Yong","112","626BFA3DD7DED2AA","20210128110627"
"206","Hotel 81 - Joy",103.876803320046,1.31278803988666,"11 Lorong 11 Geylang","388703","hotel81@hotel81.com.sg","Chu Poh Yong","42","72C0948FAE764D12","20210128110627"
"207","Hotel 81 - Kovan",103.878866751339,1.35420717029808,"768 Upper Serangoon Road , # 02-01","534636","hotel81@hotel81.com.sg","Chu Poh Yong","89","80EC1F370839C845","20210128110627"
"208","Hotel 81 - Lavender",103.862351670103,1.31075782011892,"85 Lavender Street","338716","hotel81@hotel81.com.sg","Chu Poh Yong","85","0B72CAA8BAA6C2C6","20210128110627"
"209","Hotel 81 - Lucky",103.881497891026,1.31187964409268,"23 Lorong 20 Geylang","398741","hotel81@hotel81.com.sg","Chu Poh Yong","77","B53E1B57F4840DD4","20210128110627"
"210","hotel ascendere pte ltd",103.877736767198,1.31192211161234,"1 LORONG 10 GEYLANG","399035","","ONG KUM FATT","25","0A3BE5865921B7E6","20210128110627"
"211","K HOTEL 12",103.877512889799,1.31128855675534,"12 LORONG 10 GEYLANG","399045","","CAI WENCHAO","28","FDFE52E2A7DA73CF","20210128110627"
"212","K HOTEL 14",103.87754128742,1.31123084152033,"14 LORONG 10 GEYLANG","399047","","CAI WENCHAO","45","3C17D726A70BECCE","20210128110627"
"213","K2 Guesthouse",103.786403408371,1.28061805876119,"15 SOUTH BUONA VISTA ROAD","118146","hello@k2guesthouse.com","KAY SIEW HWA","24","4036C00404CF8154","20210128110627"
"214","K2 Guesthouse Central",103.856401207739,1.30668645165441,"134 JALAN BESAR","208852","","WOON LI MING RACHEL","15","2D2347DBCF59C246","20210128110627"
"215","Asphodel Inn",103.857271555227,1.31503287812628,"380 Race Course Road (Level 2)","218702","asphoinn@yahoo.com.sg","Ong Poi Hwa","55","2AA296091FCD297F","20210128110627"
"216","Backpacker Cozy Corner Guesthouse",103.855776386801,1.29837018983764,"490 North Bridge Road (Level 2)","188736","happyjohn@cozycornerguest.com","TEO FA YU, ALVIN","15","9F6A6D4F9D2A2BFA","20210128110627"
"217","Balestier Hotel",103.847825737271,1.3263318785208,"471 Balestier Road","329842","balestier_hotel@yahoo.com","Chia Kwee Beng","42","FDA67B664B69CB8C","20210128110627"
"218","Beary Best! Hostel",103.84538117333,1.28384606770696,"18 Upper Cross Street","58332","enquiry@abearygoodhostel.com","Teo Pei Han Janine","11","3C184E1C616FE499","20210128110627"
"219","Mandarin Oriental, Singapore",103.858323986493,1.29066058376185,"5 Raffles Avenue Marina Square","39797","","Christian Andreas Hassing","527","D9935D84C8C1EF1F","20210128110627"
"220","Marina Bay Sands Singapore",103.858308388607,1.28233335098225,"1 Bayfront Avenue","18956","inquiries@marinabaysands.com","Pek Chin Siong","2561","EE049C95B8D93424","20210128110627"
"221","Marrison @ Desker",103.855693846613,1.30887261138248,"75 Desker Road","209598","reservations@marrisonhotel.com","Silvi","25","F674CA9F409D7914","20210128110627"
"222","Marrison Hotel",103.857087531077,1.2978909223511,"103 Beach Road","189704","reservations@marrisonhotel.com","Silvi","96","A95F3C2475BEB75E","20210128110627"
"223","Maxwell Reserve",103.844367354691,1.27915221128811,"2 COOK STREET","78857","","Harpreet Kaur Bedi","138","EE242E78B0F09290","20210128110627"
"224","Mayo Inn",103.854120522794,1.30392257669472,"9 Jalan Besar","208786","admin@mayoinn.com","Terrance Tay Yew Soon","22","CCB8DFF7E4E46704","20210128110627"
"225","Meadows Hostel",103.860677173023,1.31139113939717,"7A Hamilton Road","209178","meadowshostel@gmail.com","Charlie Chia","6","9FCF49363901BCC3","20210128110627"
"226","Mercure Singapore Bugis",103.853083051198,1.29963654287271,"122 MIDDLE ROAD MIDLINK PLAZA","188973","","Wong Weng Fatt, Philip","395","4FE69DFC3D1763AE","20210128110627"
"227","Mercure Singapore on Stevens",103.828399493406,1.31394109858619,"28 STEVENS ROAD, # 02-01","257878","H9561-gm@accor.com","Kevin Glenn Bossino","518","736907AABFF2A851","20210128110627"
"228","Meriton Hotel",103.854659348388,1.30474091460126,"43A Jalan Besar","208804","jackson@hotel165.sg","Teo Ai Choo","40","3C69BB608AC852EB","20210128110627"
"229","Min Wah Hotel",103.882461230625,1.31219823372169,"19 Lorong 22 Geylang","398676","96ytlim@gmail.com","Lim Yeoh Toong","97","36C8F402BD19E09E","20210128110627"
"230","MKS Backpackers' Hostel",103.853524372799,1.30679667251442,"44 Cuff Road","209757","","Muthukumaran S/O Varthan","5","303A28DBA8243689","20210128110627"
"231","Moni Gallery Hostel",103.858988963033,1.31544170610706,"263 Lavender Street","338795","enquiry@monigalleryhostel.com","Muhammad Syafiee Bin Fidrishah","9","231ECF36D2928E69","20210128110627"
"232","Naumi",103.855181687112,1.29586808458378,"41 SEAH STREET NAUMI","188396","","Surya Kumar Jhunjhnuwala","73","A6D1E2CAA630EA6F","20210128110627"
"233","New Cathay Hotel (Geylang)",103.881747206923,1.31323581232938,"443A Geylang Road","389403","newcathayhotel@yahoo.com.sg","Timothy Seah How Ming","53","9A317298E2DC1AFC","20210128110627"
"234","New Orchid Hotel",103.85103942858,1.32429128090849,"347 Balestier Road","329777","neworchidhotel@hotmail.com","Lim Lay Meng","68","CF6430A3F11D1978","20210128110627"
"235","New Society Backpacker",103.858259328995,1.31023794252736,"259A Jalan Besar","208934","newsoc259@gmail.com","Ho Chiuen Sheey","4","2A49668782EE61A8","20210128110627"
"236","Nostalgia Hotel",103.833551413429,1.28509462357436,"77 Tiong Bahru Road","168727","frontdesk@hotelnostalgia.com.sg","Ranjitha De Silva","50","711B8213261F0802","20210128110627"
"237","Novotel Singapore On Stevens",103.828399493406,1.31394109858619,"28 STEVENS ROAD, # 01-01","257878","H9543-gm@accor.com","Kevin Glenn Bossino","254","736907AA25FE4DFE","20210128110627"
"238","OAKWOOD PREMIER AMTD SINGAPORE",103.848408637443,1.27698070007554,"6 SHENTON WAY, # 07-01 OUE DOWNTOWN","68809","","Roy Liang Ming Kai","268","7205A5535E1146FF","20210128110627"
"239","Oasia Hotel Downtown, Singapore",103.844244859294,1.27585063042586,"100 Peck Seah Street","79333","reseasy@fareast.com.sg","Chai Khye Yeien","314","0A3AC604F6E09AC9","20210128110627"
"240","Oasia Hotel Novena, Singapore",103.844782388216,1.32003004588439,"8 Sinaran Drive","307470","frontofc.ohs@fareast.com.sg","Karamjit Kaur","428","80CA87F8734D9CC5","20210128110627"
"241","Oasia Resort Sentosa",103.81955756883,1.25329365829851,"23 BEACH VIEW LE MERIDIEN SINGAPORE, SENTOSA","98679","","KHOO WEI KWAN JIM","191","601E97AE26933072","20210128110627"
"242","One Farrer Hotel",103.853842196119,1.31275667459011,"1 Farrer Park Station Road","217562","","Gilbert Madhavan","249","F37D68990972A74D","20210128110627"
"243","ONE15 Marina Club",103.838344779654,1.2465985797506,"11 Cove Drive","98497","frontdesk@one15marina.com","Tay Teng Hock","26","19932DA26F51B77E","20210128110627"
"244","Orchard Rendezvous Hotel, Singapore",103.827739432245,1.3065751631695,"1 Tanglin Road","247905","info@orh.com.sg","Wong Siew Ling","388","A28ECA9D723C57F9","20210128110627"
"245","Orchid Hotel",103.843847231635,1.27693674003785,"1 Tras Link","78867","resv@orchidhotel.com.sg","Chng Beng Siong","272","1FE534AAAEAA2E17","20210128110627"
"246","Oxford Hotel",103.851820111255,1.29801057337893,"218 Queen Street","188549","reservation@oxfordhotel.com.sg","Mohamed Rafi Bin Hasan","134","A973ACA1E3287E37","20210128110627"
"247","Pan Pacific Serviced Suites Beach Road",103.860232906684,1.29943396113579,"7500B Beach Road","199592","","Choong Nyuk Fee","180","9E6BED1EEB59E7B4","20210128110627"
"248","Parc Sovereign Hotel",103.851186611181,1.30359193738081,"175 Albert Street","189970","contact@parcsovereign.com","Tan Thuang Wee","172","63F02AB52A0E0DF3","20210128110627"
"249","Parc Sovereign Hotel - Tyrwhitt",103.860633791231,1.3123170980015,"165 Tyrwhitt Road","207569","contact@parcsovereign.com","Sun Yi","270","9E4DECE8407A49E7","20210128110627"
"250","Park Avenue Changi",103.963024016311,1.33576405585821,"2 Changi Business Park Avenue 1","486015","serenetan@uel.sg","Sun Li Jing @ Ryan Sun","251","ABC57C3E84046AB9","20210128110627"
"251","Park Avenue Rochester",103.788347378512,1.30535120421258,"31 Rochester Drive","138637","serenetan@uel.sg","Sun Li Jing @ Ryan Sun","351","762D0E2D78AB7F0D","20210128110627"
"252","Park Hotel Alexandra",103.805370079297,1.28757994526013,"323 Alexandra Road Alexandra Central","159972","info.phal@parkhotelgroup.com","Ng Sock Heng","442","54DE4BD65056A933","20210128110627"
"253","Park Hotel Clarke Quay",103.842327428168,1.29154596321778,"1 Unity Street","237983","info.phcq@parkhotelgroup.com","Lim Kang Ling","340","E2C9B43EDDCF4E36","20210128110627"
"254","PARK HOTEL FARRER PARK",103.854748159228,1.31198097077815,"10 FARRER PARK STATION ROAD FARRER SQUARE","217564","","Yong Guan Chuan","300","EB1C5A786B4D0016","20210128110627"
"255","Park Regis Singapore",103.844443322367,1.28808355052563,"23 Merchant Road","58268","gmprsi@parkregissingapore.com","Lim Soon Hwee","202","604959AAFF008FEF","20210128110627"
"256","Park View Hotel",103.856493969017,1.29720601629426,"81 Beach Road","189692","parkview@parkview.com.sg","Lim Min Wee Ernest","88","150AA2256C64E3CF","20210128110627"
"257","PARKROYAL COLLECTION  Marina Bay, Singapore",103.857007341008,1.29145525906521,"6 RAFFLES BOULEVARD MARINA SQUARE","39594","","Lim Wen Pin Melvin","575","ADBAF9D2FB98EAF8","20210128110627"
"258","PARKROYAL on Kitchener Road",103.855657430547,1.31053024250151,"181 Kitchener Road","208533","enquiry@kr.parkroyalhotels.com","CHUNG KUM SENG","532","268232B7F53B2ACD","20210128110627"
"259","Pasir Panjang Inn",103.770167551417,1.29207833471118,"404 Pasir Panjang Road","118741","ppinn@pacific.net.sg","Ang Poh Seow","54","ACE2FE4B779F9B6F","20210128110627"
"260","Peninsula.Excelsior Hotel",103.849820409422,1.29194591965028,"5 Coleman Street","179805","enquiries@ytchotels.com.sg","Wong Liang Tong","591","BF8C3F5997C76A8B","20210128110627"
"261","Penta Hotel",103.853597393505,1.31119377982074,"33 Birch Road","219894","booking@pentahotel.com.sg","Lim Hwee Meang Rachel","48","1CBC78FFEACAD597","20210128110627"
"262","Perak Hotel",103.853212740709,1.30477735433313,"12 Perak Road","208133","perlodge@singnet.com.sg","Tong Kok Chiang","32","BBB3B691A6BEE9E0","20210128110627"
"263","Pine Hostel @ Lavender",103.860208871905,1.31190914918039,"153A TYRWHITT ROAD QINAN BUILDING","207566","pinehostelsg@gmail.com","TAN KEE CHONG, DERRICK","7","89CA0A7A79FC29C9","20210128110627"
"264","Populous Hotel",103.855722993909,1.29678178848365,"23 MIDDLE ROAD","188933","info@populoushotel.com","Silvi","80","C90C0045451F7566","20210128110627"
"265","Porcelain Hotel",103.844285506043,1.28423977707313,"48 Mosque Street","59526","enquiry@porcelainhotel.com","Hu Yingna","138","6007287F12F8B23D","20210128110627"
"266","Quality Hotel Marlow",103.852519737986,1.3200518654597,"201 Balestier Road","329926","dm@qualityhotelmarlow.com.sg","ONG CHIEW SENG KELLVIN","240","024A3E93AA27A3C7","20210128110627"
"267","RedDoorz @ Geylang",103.881036636411,1.31122558409044,"61 WESTERHOUT ROAD","397662","","Amit Saberwal","33","9DED7DB90451ECFB","20210128110627"
"268","RedDoorz Plus @ Little India",103.854059862488,1.3050887952847,"23 DICKSON ROAD, # 1-01-01 MOON 23 HOTEL","209507","","AMIT SABERWAL","80","97163266745A72F5","20210128110627"
"269","RedDoorz Premium @ Balestier",103.849916615644,1.32522597394005,"387 BALESTIER ROAD","329795","","Amit Saberwal","46","96A6381EC4EA7B79","20210128110627"
"270","RELC International Hotel",103.826031941452,1.31283861068763,"30 ORANGE GROVE ROAD RELC BUILDING","258352","","FRANCIS CHOO KOH ENG","151","22877550BD395886","20210128110627"
"271","Rendezvous Hotel Singapore",103.849316109185,1.29858303536992,"9 Bras Basah Road","189559","reseasy@fareast.com.sg","Douglas Fernandez","298","76A6E9EF9D75EAA7","20210128110627"
"272","Rest Bugis Hotel",103.859429082823,1.30405334691991,"8 JALAN KUBOR SANTA GRAND HOTEL BUGIS","199207","","Adrian Siow Shen Ngin","74","F7A9ECA7E9C5B114","20210128110627"
"273","River City Inn",103.847112672325,1.28741331170278,"33C Hongkong Street","59672","rivercityinn.sg@gmail.com","Loke Weng Yian","4","507C99092AECCB4C","20210128110627"
"274","RM Hotel",103.635089828004,1.34158800024817,"10 Tuas West Drive","638404","recept@rafflesmarina.com.sg","Parry Raymond John","19","E4AF163C69E28926","20210128110627"
"275","Robertson Quay Hotel",103.841985961154,1.29116819945429,"15 Merbau Road","239032","accounts@robertsonquayhotel.com.sg","Ng Swee Huat","148","790DB71B2EA818E3","20210128110627"
"276","Royal India Hotel",103.855672473307,1.30922887156542,"88 Syed Alwi Road , # 01-02","207667","sales@royalindiahotel.com","Ee Kee Chai","43","7C0288ACB8780567","20210128110627"
"277","Royal Plaza",103.83144576982,1.30708931817226,"25 Scotts Road","228220","royal@royalplaza.com.sg","Patrick Fiat","511","05B26C8FAD051389","20210128110627"
"278","S Inn Chinatown",103.84359520029,1.28330904377112,"52 Temple Street","58597","ct@s-inn.co","Li Xiaojia","13","C3B347304CF704CC","20210128110627"
"279","S Inn Clarke Quay",103.847321862853,1.28732233868587,"38A Hongkong Street","59677","cq@s-inn.co","LI XIAOJIA","11","F9167CB6F06F8117","20210128110627"
"280","Sandpiper Hotel",103.853595766242,1.30480931241135,"63 Dunlop Street","209391","reservations@sandpiperhotels.com","Pankaj Pandit","31","21836099F65FD737","20210128110627"
"281","Santa Grand Hotel East Coast",103.905795541013,1.30672319863699,"171 East Coast Road","428877","reservations@santagrand.stayariva.com","Siah Siew Geok","73","11B3D1D294E34E55","20210128110627"
"282","Seng Wah Hotel",103.882411818147,1.31231758276067,"15 Lorong 22 Geylang","398673","sengwahhotel@hotmail.com","Han Siew Ying","16","54E34679A8F2E0C5","20210128110627"
"283","Shangri-La Hotel",103.826756760616,1.31124740290096,"22 Orange Grove Road","258350","sls@shangri-la.com","Kuok Oon Kwong","792","468EE28FE511CD7C","20210128110627"
"284","Shangri-La's Rasa Sentosa Resort & Spa, Singapore",103.809797894322,1.25780205516677,"101 Siloso Road Sentosa","98970","sen@shangri-la.com","Kuok Oon Kwong","454","BB45D010408A18CB","20210128110627"
"285","Sheraton Towers Singapore Hotel",103.836462155528,1.31195052968093,"39 Scotts Road","228230","sheraton.towers.singapore@sheraton.com","Long Sie Fong","420","F8CB983B3D469C43","20210128110627"
"286","Siloso Beach Resort",103.814500414013,1.25498728174306,"51 Imbiah Walk","99538","accounts@silosobeachresort.com","NG YU TECK","195","6ABC046B9B47E41E","20210128110627"
"287","Sing Hoe Hotel",103.891452441641,1.30076129162384,"759 Mountbatten Road","437761","","ong kum fatt","41","98570114497D82A1","20210128110627"
"288","Singapore Marriott Tang Plaza Hotel",103.832874081575,1.3050223054635,"320 Orchard Road","238865","","Alvin Lim Yue Ping (Lin Youbin)","403","44DC3BCF439057DC","20210128110627"
"289","Singapore OSS Backpackers Hostel Pte Ltd",103.860729254991,1.31141627021243,"9 HAMILTON ROAD, # 01-01","209180","sossbackpackers@gmail.com","RAJENDRA PRASAD S/O N N SRINIVASA NAIDU","9","0282C860E0028697","20210128110627"
"290","SO Sofitel Singapore",103.849654800023,1.27992196206236,"35 Robinson Road","68876","H8655@sofitel.com","Mazen Abil Mona","134","D76D599B9B392E63","20210128110627"
"291","Sofitel Singapore City Centre",103.845070104293,1.2769051570011,"9 WALLICH STREET","78885","","Wouter Frank De Graaf","223","877335F1F7B222E5","20210128110627"
"292","Sofitel Singapore Sentosa Resort & Spa",103.827492431992,1.24579708620123,"2 Bukit Manis Road","99891","h9474@sofitel.com","PIOTR JAN KUPIEC","215","8ED426B6591D6CD4","20210128110627"
"293","ST Signature Bugis Beach",103.856569786349,1.29730337226863,"85 BEACH ROAD 85 BEACH GARDEN HOTEL","189694","","Goh Shen Shu, Donovan","38","DB99D87A121B6006","20210128110627"
"294","ST Signature Tanjong Pagar",103.84425057595,1.27865807402423,"32 TRAS STREET","78972","","SEAH HUI XIAN, JOANNE","92","AA44DCA443FC414B","20210128110627"
"295","St. Regis Hotel Singapore",103.826053513866,1.30566140857401,"29 Tanglin Road","247911","stregis.singapore@stregis.com","Radu Cernia","299","048B3D5147B2C459","20210128110627"
"296","Strand Hotel",103.849738602552,1.29865275917035,"25 Bencoolen Street","189619","reservations@strandhotel.com.sg","Ang Beng Hoh","130","4CBD6C0C45A2C220","20210128110627"
"297","Studio M Hotel",103.839076191393,1.29077754111531,"3 Nanson Road","238910","enquiry.smh@millenniumhotels.com","Othmane Amrani","360","F03EF56B7402C41A","20210128110627"
"298","Summer View Hotel",103.852237513996,1.30165938361762,"173  Bencoolen Street","189642","sales@summerviewhotel.com.sg","Lim Chin Sen","86","CD59DA00B214CF3B","20210128110627"
"299","Swissotel Merchant Court,Singapore",103.845692303714,1.28821802379383,"20 Merchant Road","58281","singapore-merchantcourt@swissotel.com","Rainer Tenius","476","E95540E066605ABF","20210128110627"
"300","Swissotel The Stamford, Singapore",103.853365178371,1.29326862339764,"2 Stamford Road","178882","singapore-stamford@swissotel.com","Marcus Moris Hanna","1252","274A090AC4E4760E","20210128110627"
"301","Tai Hoe Hotel",103.856565024278,1.31026597160938,"163 Kitchener Road","208538","gmgthh@gmail.om","Yee Loy Hoe","73","66D062ACD78032C6","20210128110627"
"302","Taipei Hotel (2000)",103.877081648955,1.30992260867721,"60 Lorong 8 Geylang","399120","","Tay Tiong Ying","38","4BA3F667FAB50100","20210128110627"
"303","The Amazing Inn",103.879175568282,1.31219356032738,"1 Lorong 14 Geylang","398913","sengwahhotel@hotmail.com","Han Siew Ying","18","88CC31FCB51FF28E","20210128110627"
"304","THE BARRACKS HOTEL SENTOSA",103.820644196531,1.25291730866453,"2 GUNNER LANE","99567","","Jim Khoo Wei Kwan","40","414D012CC57A8063","20210128110627"
"305","THE CAPITOL KEMPINSKI HOTEL SINGAPORE",103.850710602099,1.29416210124999,"15 STAMFORD ROAD","178906","","Dawn Tan Woon Woon","157","B25D68ABEEB78850","20210128110627"
"306","The Clan Hotel",103.848274543912,1.28266106573536,"10 CROSS STREET","48417","","CHRISTINA WENDY LEE","324","67A44488A8BB85B6","20210128110627"
"307","The Daulat",103.852855023694,1.30475126170812,"16 Madras Street","208413","reservation@thedaulat.com","Shaik Mohamed S/O Mohamed Abdul Jaleel","16","45265B49626D01D9","20210128110627"
"308","The Elizabeth",103.835712305282,1.30802411708656,"24 Mount Elizabeth","228518","info@theelizabeth.com.sg","Mohamed Faharudin Bin Masood","256","8285E273B7F99A45","20210128110627"
"309","The Fullerton Bay Hotel",103.8534802041,1.28396667042346,"80 Collyer Quay","49326","fbh.info@fullertonhotels.com","Giovanni Viterale","98","2745F9F5912EC8B9","20210128110627"
"310","The Fullerton Hotel",103.852970351253,1.2861932360653,"1 Fullerton Square","49178","tfs.info@fullertonhotels.com","Giovanni Viterale","399","7604490E359CB43E","20210128110627"
"311","THE GREAT MADRAS",103.853009974106,1.30493595075971,"28 MADRAS STREET","208422","zubair@dam.com.sg","SHAIK MOHAMED S/O MOHAMED ABDUL JALEEL","29","ACD183F8850757BA","20210128110627"
"312","The Hive Singapore Hostel",103.858786331918,1.31571664407736,"624 SERANGOON ROAD THE HIVE","218223","","YAN TONGJI","13","915876CC5A5C1A96","20210128110627"
"313","The Inn at Temple Street",103.843868478868,1.28320660795322,"36 Temple Street","58581","rsvn.room@theinn.com.sg","Kho Chuan Thye Patrick","42","DB87DFC691F6C004","20210128110627"
"314","The Keong Saik Hotel",103.841640168586,1.28103904341286,"69 Keong Saik Road","89165","reservations@keongsaikhotel.com.sg","Tan Koon Jim","25","C08E9BF66D14C6E6","20210128110627"
"315","The Outpost Hotel Sentosa",103.819943383466,1.25225951518978,"10 ARTILLERY AVENUE, # 03-01","99951","","JIM KHOO WEI KWAN","193","3ACCB44270106170","20210128110627"
"316","THE QUAY HOTEL",103.848312936218,1.2870550760207,"57 SOUTH BRIDGE ROAD SANTA GRAND HOTEL BOAT QUAY","58688","","Heng Chern Chieh, Germaine","41","8F1A6E60C344BF35","20210128110627"
"317","The Quay Hotel Lavender",103.861185772159,1.31234470122478,"139 LAVENDER STREET AQUEEN HOTEL - LAVENDER","338739","","Heng Chern Chieh Germaine","102","C500B925DFFB1C49","20210128110627"
"318","Kam Leng Hotel",103.859699504459,1.31322431873699,"383 Jalan Besar","209001","reservations@kamleng.com","Hu Yingna","70","90F5301BD31E81DD","20210128110627"
"319","KeSa House",103.841542357757,1.28061922396397,"55 KEONG SAIK ROAD, # 01-02","89158","","Manchharam Ashish","60","FD57F84B8A87C940","20210128110627"
"320","Kim Tian (Star) Hotel",103.876240340591,1.31143553463831,"4 Lorong 6 Geylang","399166","","Steven Han How Chye","43","108A3FBC4F850C72","20210128110627"
"321","La Mode (Sophia)",103.877802903174,1.3112646112522,"17 Lorong 10 Geylang","399050","","Teng Ai Fong","35","DAC543AEA585EF1C","20210128110627"
"322","Lai Ming Hotel",103.883130632629,1.31301909204336,"432  Geylang Road","389396","otl@laiming.com.sg","Ong Tong Liang","15","D8439240641E1543","20210128110627"
"323","Lai Ming Hotel Cosmoland",103.88287775601,1.31285242907657,"424 Geylang Road","389395","otl@laiminghotel.com.sg","Ong Tong Liang","54","65C3A99FF5F30E2F","20210128110627"
"324","LEX HOTEL (LORONG 8)",103.877164397644,1.31181053676029,"1 LORONG 8 GEYLANG","399073","","PANG CHIN FATT","41","AE0C6660884D2FC4","20210128110627"
"325","Link Hotel",103.834290657294,1.28487238567456,"50 Tiong Bahru Road","168733","info@linkhotel.com.sg","Dong Hankun","274","DB8D4F17741BF058","20210128110627"
"326","Lloyd's Inn",103.840365853895,1.29726358007835,"2 Lloyd Road","239091","mail@lloydsinn.com","CHANG YI WEN, JOAN","34","2C4F2C1B0F9C696C","20210128110627"
"327","Lodge 41",103.880201803937,1.31152237256803,"41 Lorong 16 Geylang","398877","","Yong Chung Yung","22","C7F5DB12BA986119","20210128110627"
"328","lyf Funan Singapore",103.84945862617,1.29157596080638,"67 HILL STREET","179370","","Cross Norman Francis","329","7C29A0FEB41A1905","20210128110627"
"329","M Social Singapore",103.837220928325,1.29086699266622,"90 Robertson Quay","238259","","Othmane AMRANI","293","72424155F1FBBF08","20210128110627"
"330","Mandarin Orchard Singapore",103.836340959124,1.3020645045383,"333 Orchard Road","238867","orchard@meritushotels.com","Danny Wong Hee Ling","1077","7FB2435245CD216A","20210128110627"
"331","K Hotel 8",103.877397285256,1.31067428643295,"37 LORONG 8 GEYLANG","399099","","CAI WENCHAO","27","79215385E3D73497","20210105175726"
"332","Hotel Bencoolen",103.850108265483,1.29918672172522,"47 Bencoolen Street","189626","enquiries@hotelbencoolen.com","Herman Gay Teow Hua","84","6277BB04642A8A23","20210128110627"
"333","Hotel Bencoolen @ Hong Kong Street",103.847672305859,1.28709359119965,"47 Hongkong Street","59685","reservation.hkst@hotelbencoolen.com","Herman Gay Teow Hua","33","ABEA22C7B13DD65E","20210128110627"
"334","Hotel Boss",103.860266746951,1.30571322703811,"500 Jalan Sultan","199020","contact@hotelboss.sg","Goh Kok Keong","1500","9EB09D9E82C19F56","20210128110627"
"335","Hotel Calmo Bugis",103.856724365667,1.29750996934403,"95 BEACH ROAD","189699","","CAI WENCHAO","33","2F395CEF60C76569","20210128110627"
"336","Hotel Chancellor @ Orchard",103.841931936895,1.30145985771336,"28 Cavenagh Road","229635","reservations@ghihotels.com.sg","TAN HWA LIAN","488","A82074A054106328","20210128110627"
"337","Hotel Clover 33 Jalan Sultan",103.861729305374,1.30201280747959,"33 Jalan Sultan","198965","enquiries@hotelclover.com","Zhang YuanQing","88","CFA7AC672B10EDEC","20210128110627"
"338","Hotel Clover 5 Hongkong Street",103.8478409081,1.28743138227384,"5 Hongkong Street","59648","enquiries@hotelclover5hongkongstreet.com","Teo Kok Hwee","55","9DC21F773915C40A","20210128110627"
"339","Hotel Clover 7 Hongkong Street",103.847711703541,1.28746404866926,"7 HONGKONG STREET","59650","enquiries@hotelclover.com","Teo Kok Hwee","27","6E91038E536D2FE7","20210128110627"
"340","Hotel Clover The Arts",103.848141341165,1.28754163889102,"58 South Bridge Road","58689","","Ang Kian Kok","44","9862AB3996CE343A","20210128110627"
"341","Hotel Conforto",103.847855885666,1.28834728764827,"16 Carpenter Street","59905","main@conforto.com.sg","Ng Wee Meng","22","3D9C9954B7D4AA57","20210128110627"
"342","Hotel Fort Canning",103.845362056485,1.29581266426264,"11 Canning Walk","178881","contact@hfcsingapore.com","Oh Chee Eng","86","03AB1DCDDF5A751F","20210128110627"
"343","Hotel Fuji",103.882676232074,1.31170570900502,"22 Jalan Molek","399541","hotelfuji.pl@gmail.com","Ho Siew Hwa","30","AAEA72E3334FE227","20210128110627"
"344","Hotel G Singapore",103.851506467292,1.30091639007984,"200 MIDDLE ROAD BIG HOTEL","188980","gm@hotelgsingapore.com","Guillaume Jean-Marc Laurent Places","308","30B395B721E9B6E1","20210128110627"
"345","Hotel Grand Central",103.841767535762,1.3012946724269,"22 Cavenagh Road","229617","accommodations@grandcentral.com.sg","Tan Hwa Lian","263","ED92F6ECB9D7B21F","20210128110627"
"346","Hotel Grand Pacific",103.852228308446,1.29755505808723,"101 Victoria Street","188018","accounts@hotelgrandpacific.com.sg","Wee Cheng Lim","240","B36B172E43BA4872","20210128110627"
"347","Hotel Indigo Singapore Katong",103.904298453373,1.30511658100901,"86 EAST COAST ROAD, # 01-01 KATONG SQUARE","428788","","Adel Aramouni","131","F5982FEE6CB33200","20210128110627"
"348","Hotel Kai",103.855405321377,1.29652178913596,"14 Purvis Street","188593","hst@hotelkai.com","Tan Hui See","32","7B30DFF3E64F94C0","20210128110627"
"349","Hotel Mi",103.850020544639,1.29898582310214,"41 BENCOOLEN STREET, # 01-01","189623","contact@hotelmi.sg","Kusaka Masaharu","342","AC77950686B7C716","20210128110627"
"350","Hotel Miramar Singapore",103.837414948933,1.28821989466535,"401 Havelock Road","169631","enquiry@miramar.com.sg","Lim Kian Tiong","342","64350D712DE76EB3","20210128110627"
"351","Hotel Mono",103.844451263067,1.28379045079176,"18 MOSQUE STREET, # 01-04","59498","","QUAH TZE WEN, GLENN","46","496E8371F0378CCE","20210128110627"
"352","Hotel Nuve",103.858275297851,1.30275140814887,"11 Jalan Pinang","199143","contact@hotelnuve.com","Soh Shil Nie","43","B7AB95BFB22C3559","20210128110627"
"353","Hotel NuVe Elements",103.847485428195,1.28723475456215,"41 HONGKONG STREET","59680","doreen.soh@hotelnuveheritage.com","SOH SHIL FANG, DOREEN","24","29A39A158058CF62","20210128110627"
"354","Hotel NuVe Heritage",103.855342376526,1.29651404832504,"13 PURVIS STREET ADONIS HOTEL","188592","","SOH SHIL NIE","19","5E4A09C945D05AC9","20210128110627"
"355","Hotel NuVe Urbane",103.858805131874,1.30732088892971,"3 KING GEORGE'S AVENUE","208582","","Soh Shil Fang Doreen","62","2D4A2D8B64B10A04","20210128110627"
"356","Hotel Re! @ Pearl's Hill",103.838407284725,1.28541002481652,"175A Chin Swee Road","169879","hr@hotelre.com.sg","Tan Kwee Hiang","140","70403A731948BA47","20210128110627"
"357","Hotel Royal",103.841859487874,1.31683060092808,"36 Newton Road","307964","royal@hotelroyal.com.sg","Lee Chou Hock","362","3EA4D0490223DC32","20210128110627"
"358","Hotel Royal @ Queens",103.852133093109,1.29752625749619,"12 Queen Street","188553","info@royalqueens.com.sg","Lee Si Min","231","DD88D65E669C525D","20210128110627"
"359","Hotel Snow Lavender",103.861821449557,1.31087924623786,"26 CAVAN ROAD HOTEL SNOW","209854","hotelsnow.lavender@gmail.com","Ngiam Seng Ngiap","32","7A21C3F177455E1C","20210128110627"
"360","Hotel Soloha",103.841991814742,1.28037791620728,"12 TECK LIM ROAD","88387","","Hu Yaocheng","45","9DBEF7F791FE0CC8","20210128110627"
"361","Hotel Supreme",103.842424737463,1.30133935750645,"15 Kramat Road","228750","","Ang Poh Seow","86","C198C339B5A67E14","20210128110627"
"362","Hotel Yan",103.855108812764,1.30981355102668,"162 Tyrwhitt Road","207681","reservations@hotel-yan.com","Lim Kah Eng","69","079B039AEDFA3B46","20210128110627"
"363","Hup Hoe Hotel",103.887584117469,1.31396450261326,"586A Geylang Road","389525","","Tan Tong Wah","10","D2B28085C296E5E0","20210128110627"
"364","ibis budget Singapore Bugis",103.855556164289,1.29692081795715,"33 Middle Road","188942","contact@fragrancehotel.com","Tan Thuang Wee","84","88B24860086EF704","20210128110627"
"365","ibis budget Singapore Clarke Quay",103.847146355817,1.28789594572544,"20 Hongkong Street","59663","contact@fragrancehotel.com","Tan Thuang Wee","101","484A83EA6AB7C110","20210128110627"
"366","ibis budget Singapore Crystal",103.880589488415,1.31057497568161,"50 Lorong 18 Geylang","398824","contact@fragrancehotel.com","GAN KUAN YEW","125","6AA223E6177E038D","20210128110627"
"367","ibis budget Singapore Emerald",103.876341748039,1.31100987837705,"20 Lorong 6 Geylang","399174","contact@fragrancehotel.com","Gan Kuan Yew","126","91DAF06E228672DC","20210128110627"
"368","ibis budget Singapore Imperial",103.862425383983,1.30963597847065,"28 Penhas Road","208187","contact@fragrancehotel.com","Sun Yi","74","F9DCAA8E0FF53F30","20210128110627"
"369","ibis budget Singapore Mount Faber",103.813874982995,1.26970676465938,"400 Telok Blangah Road","98838","contact@fragrancehotel.com","Sun Yi","32","63EA28232CBF6295","20210128110627"
"370","ibis budget Singapore Pearl",103.879289173768,1.31156055920328,"21 Lorong 14 Geylang","398961","contact@fragrancehotel.com","GAN KUAN YEW","129","298ADD99D17D9CBA","20210128110627"
"371","ibis budget Singapore Ruby",103.881097098283,1.31223807766207,"10 Lorong 20 Geylang","398730","contact@fragrancehotel.com","Gan Kuan yew","168","DDDC8B366E3CAF0A","20210128110627"
"372","ibis budget Singapore Sapphire",103.877769447217,1.31175754744813,"3 Lorong 10 Geylang","399037","contact@fragrancehotel.com","GAN KUAN YEW","50","C81A404066009054","20210128110627"
"373","ibis budget Singapore Selegie",103.849948919677,1.30376527735541,"183 Selegie Road","188329","contact@fragrancehotel.com","Tan Thuang Wee","95","E202BBE79158BF24","20210128110627"
"374","ibis budget Singapore West Coast",103.768888272797,1.2922089251387,"418 Pasir Panjang Road","118759","contact@fragrancehotel.com","Sun Yi","57","0D3FCE03B884E7AA","20210128110627"
"375","Ibis Singapore Novena",103.845545056163,1.32614785361247,"6 Irrawaddy Road","329543","","Lui Cheng Yan Josephine","241","D0FE7701947F4ADF","20210128110627"
"376","Ibis Singapore on Bencoolen",103.852422678333,1.30096316425159,"170 Bencoolen Street","189657","H6657@accor.com","David Malcolm Lane","538","CE29B88E538416F1","20210128110627"
"377","ibis Styles Singapore on Macpherson",103.879294508881,1.33177053490393,"401 Macpherson Road","368125","H9411@accor.com","Rolfe Shamila","298","EC9428511F71C37B","20210128110627"
"378","InterContinental Singapore",103.854867046362,1.29846962637,"80 Middle Road","188966","singapore@interconti.com","Andreas Kraemer","403","2A3A1F6BDD686CD9","20210128110627"
"379","InterContinental Singapore Robertson Quay",103.838551707065,1.28984102269144,"1 NANSON ROAD","238909","info.sinic@ihg.com","Tania Krassimirova Getzova","225","B7C8F6B53B111D38","20210128110627"
"380","iStay.inn",103.845924101605,1.28298235047301,"215A South Bridge Road","58764","info@istayinn.com.sg","Lim So Geok","18","83F4C4AB0AD7E599","20210128110627"
"381","J8 Hotel",103.858520506324,1.30769755698718,"8 Townshend Road","207606","hq@j8hotel.com","Joseph Lee Boon Leng","98","15783D1CB558B0A1","20210128110627"
"382","Jade Hotel",103.882775886651,1.31171183228565,"18 Jalan Molek","399535","eddyswee2017@gmail.com","Suey Hueh King","36","74D42465590C16D6","20210128110627"
"383","Jayleen 1918 Hotel",103.847932686159,1.28778717516192,"42 Carpenter Street","59921","james@jayleen1918.com.sg","James Frederick Chong Kah Yean","40","2816145A466EAFA7","20210128110627"
"384","The Regent Singapore",103.824897364807,1.30467322365634,"1 Cuscaden Road","249715","reservations@regentsingapore.com.sg","Oscar Joan Giorgius Postma","440","0483F038CB574301","20210128110627"
"385","The Ritz-Carlton, Millenia Singapore",103.860047265048,1.29071830259005,"7 Raffles Avenue","39799","sinrz.leads@ritzcarlton.com","Peter William Mainguy","608","5AC82CBBCC45350F","20210128110627"
"386","The Scarlet Hotel",103.845399528928,1.28082633621452,"33 Erskine Road","69333","reservations@thescarlethotels.com","Anasri Bin T Onn","80","2655350159F92B0A","20210128110627"
"387","The Seacare Hotel",103.839843127647,1.28771626958407,"52 Chin Swee Road","169875","reservations@theseacarehotel.com.sg","Choo Sin How","103","52CE0FD2072988CD","20210128110627"
"388","The Southbridge Hotel",103.845656808105,1.28341894026954,"210 South Bridge Road","58759","admin@southbridge.com","Leong Mun Choy, Bernard","47","BBB01783A55F18E5","20210128110627"
"389","The Sultan",103.860975921584,1.30316598668086,"101 Jalan Sultan","199002","info@thesultan.com.sg","Ong Shu Xian Charmaine","60","BFB7ECAF785EECF4","20210128110627"
"390","The Vagabond Club",103.858401651016,1.30689059540429,"39 Syed Alwi Road","207630","accounts@garchahotels.com","Harpreet Kaur Bedi","41","CE5B3EE1018C698B","20210128110627"
"391","The Westin Singapore",103.850795186495,1.27830729144643,"12 Marina View   Asia Square Tower 2","18961","westin.singapore@westin.com","Kuljit Singh Sarjit Singh","305","9970EFDF76A09B0E","20210128110627"
"392","Traveller@sg",103.861714993221,1.31033177948249,"111H King George's Avenue","208559","","Yan Tongji","7","F0F5D2803F532FD8","20210128110627"
"393","K Space Inn 569",103.858144106984,1.31559230859372,"569 SERANGOON ROAD 60'S HOSTEL","218184","","CAI WENCHAO","7","732F33D9582A2253","20210105175726"
"394","Kim Tian Hotel",103.882458725423,1.31205758973578,"21 Lorong 22 Geylang","398678","","Steven Han How Chye","47","CFBF74093BAC96B4","20210105175726"
"395","Kim Tian Hotel (Han)",103.876202869193,1.31016069700456,"29 Lorong 4 Geylang","399281","","Steven Han How Chye","48","5286CCA6CD77626E","20210105175726"
"396","PARKROYAL on Beach Road, Singapore",103.860070225371,1.29945373680809,"7500A Beach Road The Plaza","199591","enquiry@parkroyalhotels.com","CAMPILLO ANGELITO PAOLO LACSON","346","4924DB8DA0266F16","20210105175726"
"397","Q Loft Hotels@Bedok",103.94704995457,1.33160106900625,"357A BEDOK ROAD, # 1-","469546","mgtqloft@gmail.com","TAN TIAN MEI","12","D659C4A4FD803828","20210105175726"
"398","Q Loft Hotels@Mackenzie",103.849798670544,1.30437833815954,"15 Mackenzie Road","228677","","Tan Tian Mei","40","F4F09F30F0E3544F","20210105175726"
"399","Raffles Hotel Singapore",103.854068347721,1.29509740338279,"1 Beach Road","189673","singapore@raffles.com","Christian Westbeld","115","8788A5F4CB8744EF","20210105175726"
"400","Ramada Singapore at Zhongshan Park",103.846374260603,1.32710813170856,"16 Ah Hood Road","329983","info@ramadasingapore.com","Tony John Cousens","382","19755CEBC868778A","20210105175726"
"401","Reddoorz @ Aljunied",103.881861947743,1.31116645434913,"34 LORONG 22 GEYLANG LEMON GRASS HOTEL","398691","","AMIT SABERWAL","42","003525F687D38DDA","20210105175726"
"402","RedDoorz near Marine Parade Central",103.912040454705,1.30869695647047,"400 EAST COAST ROAD GARDEN TERRACE HOTEL","428996","","AMIT SABERWAL","62","4DB366809E651AA1","20210105175726"
"403","The Noble Hotel",103.859775934817,1.31379680423507,"407 JALAN BESAR THE NOBLE HOTEL","209012","","Tay Hongwei Alinilson","30","121557C245EE5600","20210105175726"
"404","The Pod",103.860546413684,1.30105228944496,"289 Beach Road  , # 03-01","199552","info@thepodcapsulehotel.sg","Steven Lee Ngiap Hui","15","4C641C6587C8C398","20210105175726"
"405","Snooze Inn @ Dunlop Street",103.854022759534,1.30473915824794,"28 DUNLOP STREET KAWAN HOSTEL","209356","","Tsai Shi Shyuan","15","0E17FCCF246EDBE6","20210105175726"
"406","Snooze Inn Pte Ltd",103.853723617758,1.30536816987403,"43 DICKSON ROAD PHIL INN","209518","","TSAI SHI SHYUAN","23","F0FF75DCB0A99F58","20210105175726"
"407","South East Asia Hotel",103.853135267954,1.30108678628959,"190 Waterloo Street","187965","seahotel@singnet.com.sg","Huang Wen Hwa","51","79F31324BCC1C495","20210105175726"
"408","Spacepod@Lavender",103.861714993221,1.31033177948249,"111J King George's Avenue","208559","booking@bpsg.com.sg","Bian Haiqiu","8","F0F5D28062C8D0BD","20210105175726"
"409","Hotel 81 - Orchid",103.877277745979,1.31119116358172,"21 Lorong 8 Geylang","399090","hotel81@hotel81.com.sg","Chu Poh Yong","182","2D61777F80DEAC1D","20210105175726"
"410","Hotel 81 - Osaka",103.834966686156,1.28336484066759,"1 Eng Hoon Street","169753","hotel81@hotel81.com.sg","Chu Poh Yong","74","44F052ED4506294E","20210105175726"
"411","Hotel 81 - Palace",103.880119073255,1.31179140354756,"25 Lorong 16 Geylang","398867","hotel81@hotel81.com.sg","Chu Poh Yong","192","6FD6C20143A9880D","20210105175726"
"412","Hotel 81 - Princess",103.878632309021,1.31098893424992,"21 Lorong 12 Geylang","399001","hotel81@hotel81.com.sg","Chu Poh Yong","133","914BC2568D8E2EE1","20210105175726"
"413","Hotel 81 - Rochor",103.853983386178,1.30375424119096,"5 Jalan Besar","208785","hotel81@hotel81.com.sg","Chu Poh Yong","87","5490849D7416D335","20210105175726"
"414","Hotel 81 - Sakura",103.900510985539,1.31229179932804,"181 Joo Chiat Road","427452","hotel81@hotel81.com.sg","Chu Poh Yong","75","6C8B59EEC7DC4C3C","20210105175726"
"415","Hotel 81 - Selegie",103.849884117871,1.3032844053482,"161 Selegie Road","188318","hotel81@hotel81.com.sg","Chu Poh Yong","81","F2B7F837998E434F","20210105175726"
"416","Hotel 81 - Spring",103.878270058693,1.31368275668813,"22 Lorong 15 Geylang","388619","hotel81@hotel81.com.sg","Chu Poh Yong","32","F97BF4D688D2B64F","20210105175726"
"417","Hotel 81 - Star",103.880860523551,1.31160600473177,"31 Lorong 18 Geylang","398828","hotel81@hotel81.com.sg","Chu Poh Yong","207","A904805F1B766828","20210105175726"
"418","Hotel 81 - Tristar",103.897420527925,1.31568836964855,"1 Onan Road","424780","hotel81@hotel81.com.sg","Chu Poh Yong","116","64E0BD023BAB5C2C","20210105175726"
"419","Hotel 81 - Violet",103.862164062966,1.31106785024407,"97 Lavender Street","338722","hotel81@hotel81.com.sg","Chu Poh Yong","49","14CB66640F998417","20210105175726"
"420","Value Hotel - Balestier",103.853270441013,1.32124006979661,"218 Balestier Road","329684","valuehotel@valuehotel.com.sg","Chu Poh Yong","208","EC3E7E349FA619EE","20210105175726"
"421","Value Hotel - Nice",103.852504389911,1.32334493742066,"302 Balestier Road","329738","valuehotel@valuehotel.com.sg","Chu Poh Yong","63","31D11432E3C9F122","20210105175726"
"422","Value Hotel - Thomson",103.842719933396,1.3269557412414,"592 Balestier Road","329901","valuehotel@valuehotel.com.sg","Chu Poh Yong","366","A60A2481DE2E2ACB","20210105175726"
