X,Name,Type,Longitude,Latitude,Address
1,44 Tan Quee Lan St,Taxi Stop,103.8564242,1.298932432,"44 Tan Quee Lan St, Singapore 188128"
2,51 Canning Rise,Taxi Stop,103.8460816,1.296240012,"51 Canning Rise, Singapore 179872"
3,6 Raffles Blvd,Taxi Pick Up / Drop Off,103.8566866,1.29237923,"6 Raffles Blvd, Marina Square, Singapore 039594"
4,Promenade Stn/Pan Pacific,Taxi Stand,103.8598475,1.291530653,"Promenade Stn/Pan Pacific, Singapore"
5,3 Temasek Blvd,Taxi Stand,103.8586563,1.29534703,"3 Temasek Blvd, Singapore"
6,7VV5+XR Singapore,Taxi Stand,103.8595076,1.294981285,7VV5+XR Singapore
8,6 Temasek Ave,Taxi Stand,103.860595,1.292834965,"6 Temasek Ave, Singapore"
9,The Esplanade,Taxi Stand,103.8562914,1.289821622,"The Esplanade, Singapore"
10,1 Raffles Blvd,Taxi Stand,103.8569453,1.292803723,"1 Raffles Blvd, Singapore 039593"
11,80 Bras Basah Rd,Taxi Pick Up / Drop Off,103.8537185,1.293339064,"80 Bras Basah Rd, Singapore 189560"
12,39 Armenian St,Taxi Stand,103.8492815,1.294206953,"39 Armenian St, Singapore 179941"
13,51 Telok Blangah Drive,Taxi Stand,103.8094234,1.273483684,"51 Telok Blangah Drive, #01-116/118, Blangah View, Singapore 100051"
14,Changi Airport Terminal 4 Departure Transit Hall Mezzanine Level,Taxi Stop,103.9851174,1.339474654,"Changi Airport Terminal 4 Departure Transit Hall Mezzanine Level, Singapore 819665"
15,50 Tanah Merah Ferry Rd,Taxi Stand,103.9883432,1.314370718,"50 Tanah Merah Ferry Rd, Tanah Merah Ferry Terminal, Singapore 498833"
16,217 Queen St,Taxi Stop,103.8521828,1.29807285,"217 Queen St, Singapore 188548"
17,302 Shunfu Rd,Taxi Stand,103.8393508,1.349417417,"302 Shunfu Rd, Block 302, Singapore 570302"
18,101 Victoria St,Taxi Pick Up / Drop Off,103.8527368,1.297309596,"101 Victoria St, Singapore 188018"
19,Shaw Twrs,Taxi Stand,103.8570197,1.29716395,"Shaw Twrs, Singapore 189768"
20,25 Purvis St,Taxi Stand,103.8554135,1.296237688,"25 Purvis St, Singapore 188602"
21,320 Victoria St,Taxi Stand,103.8556085,1.300009409,"320 Victoria St, Singapore 188045"
22,739A Bedok Reservoir Rd,Taxi Stand,103.9240136,1.338099631,"739A Bedok Reservoir Rd, Singapore 471739"
23,814 Hougang Central,Taxi Stand,103.8929207,1.371481956,"814 Hougang Central, Singapore"
24,Sengkang Stn,Taxi Stand,103.8959981,1.392658341,"Sengkang Stn, Singapore"
25,9 Deptford Rd,Taxi Stand,103.8298911,1.458946824,"9 Deptford Rd, Singapore 759658"
26,3B River Valley Rd,Taxi Stand,103.8457728,1.291332844,"3B River Valley Rd, Singapore 179021"
27,960 Woodlands Rd,Taxi Stop,103.7622558,1.425614275,"960 Woodlands Rd, #01-08, Singapore 738702"
28,177C River Valley Rd,Taxi Stand,103.8452746,1.291706721,"177C River Valley Rd, Singapore 179036"
29,50 Mosque St,Taxi Stand,103.844052,1.284294525,"50 Mosque St, Singapore 059528"
30,11 New Market Rd,Taxi Stand,103.8437737,1.285977549,"11 New Market Rd, Singapore 050032"
31,72 Temple St,Taxi Stop,103.8432736,1.283452913,"72 Temple St, Singapore 058616"
32,No. 20 Upper Circular Rd,Taxi Stop,103.8481403,1.288963894,"No. 20 Upper Circular Rd, #03-06A The Riverwalk, Singapore 058416"
33,19 Carpenter St,Taxi Stand,103.8474818,1.288430461,"19 Carpenter St, Singapore 059908"
34,2 Magazine Rd,Taxi Stand,103.8421522,1.288636304,"2 Magazine Rd, Singapore 059570"
35,6 Eu Tong Sen St,Taxi Stand,103.8462304,1.28880542,"6 Eu Tong Sen St, Singapore 059817"
36,30 Merchant Rd,Taxi Stand,103.84404,1.289204568,"30 Merchant Rd, Singapore"
37,30 N Canal Rd,Taxi Stand,103.8474268,1.286777723,"30 N Canal Rd, Singapore 059286"
38,4 Circular Rd,Taxi Stand,103.8488938,1.287969075,"4 Circular Rd, Singapore 049360"
39,1 Pickering St,Taxi Pick Up / Drop Off,103.8476164,1.28491188,"1 Pickering St, Singapore 048659"
40,79 Circular Rd,Taxi Stand,103.8488102,1.286886567,"79 Circular Rd, Singapore 049433"
41,7RMW+9M Singapore,Taxi Stop,103.8466733,1.283469642,7RMW+9M Singapore
42,9 Battery Rd,Taxi Stop,103.8521079,1.285191907,"9 Battery Rd, Singapore 049910"
43,1 Old Parliament Ln,Taxi Stand,103.8511981,1.288233168,"1 Old Parliament Ln, Singapore 179429"
44,9 Raffles Pl,Taxi Stop,103.8512389,1.283451318,"9 Raffles Pl, Singapore 048619"
45,16 Collyer Quay,Taxi Stop,103.8527368,1.284204763,"16 Collyer Quay, Singapore 049318"
46,65 Market St,Taxi Stand,103.8502735,1.284413421,"65 Market St, Singapore 048941"
47,19 Tanglin Rd,Taxi Stand,103.8268867,1.306469198,"19 Tanglin Rd, Singapore 247909"
48,250 North Bridge Road,Taxi Stand,103.8527485,1.29353056,"250 North Bridge Road, #06-00 , Raffles City Tower, Singapore 179101"
49,7VV3+PG Singapore,Taxi Pick Up / Drop Off,103.8537663,1.294259819,7VV3+PG Singapore
50,30 Seng Poh Rd,Taxi Stand,103.8326755,1.284738359,"30 Seng Poh Rd, Singapore 168898"
51,4 Tampines Central 5,Taxi Stand,103.9452241,1.352414074,"4 Tampines Central 5, Singapore 529510"
52,Telok Blangah Rd,Taxi Stand,103.8212035,1.265877893,"Telok Blangah Rd, Singapore"
53,Katong Shop Ctr,Taxi Stand,103.901377,1.303843626,"Katong Shop Ctr, Singapore"
54,Farrer Rd,Taxi Stand,103.8073059,1.317384361,"Farrer Rd, Farrer Road, Singapore"
55,492 Jurong West Street 41,Taxi Stand,103.7252027,1.35009864,"492 Jurong West Street 41, Singapore"
56,400 Orchard Rd,Taxi Stop,103.829094,1.307192068,"400 Orchard Rd, Singapore 238875"
57,Pasir Ris Dr 1,Taxi Stop,103.9495674,1.372728684,"Pasir Ris Dr 1, Pasir Ris, Singapore"
58,15 N Canal Rd,Taxi Stop,103.8484909,1.285935248,"15 N Canal Rd, Singapore 048827"
59,168 Anson Rd,Taxi Pick Up / Drop Off,103.8474826,1.277373877,"168 Anson Rd, Capital Tower, Singapore 068912"
60,6a Shenton Way,Taxi Stop,103.8489008,1.277435211,"6a Shenton Way, Singapore 068807"
61,4 Shenton Way,Taxi Stop,103.8498429,1.279052524,"4 Shenton Way, Singapore 068807"
62,49 Robinson Rd,Taxi Stop,103.8493947,1.279623978,"49 Robinson Rd, Singapore 068881"
63,77 Robinson Rd,Taxi Stop,103.8485018,1.278138359,"77 Robinson Rd, Robinson 77, Singapore 068896"
64,21 Marina Station Road,Taxi Pick Up / Drop Off,103.8555601,1.276642319,"21 Marina Station Road, Singapore 018990"
65,24 Peck Seah St,Taxi Stand,103.8450874,1.278368865,"24 Peck Seah St, Singapore 079314"
66,2 East Coast Ave,Taxi Stand,103.9225912,1.308202721,"2 East Coast Ave, Singapore 459170"
67,79 Tg Pagar Rd,Taxi Stand,103.8437371,1.277877302,"79 Tg Pagar Rd, Singapore 088500"
68,Aft Tg Katong Cplx,Taxi Stand,103.8951137,1.317234377,"Aft Tg Katong Cplx, Aft Tg Katong Cplx, Singapore"
69,60 Duxton Rd,Taxi Stand,103.8431653,1.277843932,"60 Duxton Rd, Singapore 089524"
70,32 Tras St,Taxi Stand,103.8442154,1.278757555,"32 Tras St, Singapore 078972"
71,785 Bukit Timah Rd,Taxi Stop,103.7967752,1.331018856,"785 Bukit Timah Rd, Singapore 269761"
72,28 Shenton Way,Taxi Stop,103.847052,1.274667337,"28 Shenton Way, Singapore"
73,10 Anson Rd,Taxi Stand,103.846129,1.275701366,"10 Anson Rd, International Plaza, Singapore 079903"
74,62 Anson Rd,Taxi Pick Up / Drop Off,103.8449041,1.273703854,"62 Anson Rd, Singapore 079909"
75,6 Hoe Chiang Rd,Taxi Stop,103.8426834,1.274179955,"6 Hoe Chiang Rd, Singapore"
76,The Amara,Taxi Stop,103.8433173,1.275052241,"The Amara, Singapore"
77,80 Anson Rd,Taxi Stand,103.8438016,1.273448431,"80 Anson Rd, Singapore 079907"
78,2 Jurong Hill,Taxi Stand,103.7070679,1.320980629,"2 Jurong Hill, Singapore 628925"
79,355 Jln Bukit Ho Swee,Taxi Stand,103.8278464,1.286650797,"355 Jln Bukit Ho Swee, Singapore 169567"
80,3 Hospital Dr,Taxi Stand,103.8340857,1.278181048,"3 Hospital Dr, Singapore 169608"
81,19B Ghim Moh Rd,Taxi Stand,103.787973,1.311779989,"19B Ghim Moh Rd, Singapore 273019"
82,Holiday Inn Park View Hotel Singapore #01-03,Taxi Stop,103.8409628,1.30258027,"Holiday Inn Park View Hotel Singapore #01-03, 11 Cavenagh Road (S)229616, Singapore 229616"
83,1 Orchard Rd,Taxi Stand,103.8397669,1.301160462,"1 Orchard Rd, Singapore"
84,554 W Camp Rd,Taxi Stop,103.8644515,1.419007342,"554 W Camp Rd, Singapore 797792"
85,Marina Bay Cruise,Taxi Stand,103.8597796,1.267126957,"Marina Bay Cruise, Singapore"
86,23 Cecil St,Taxi Stop,103.8498215,1.282026981,"23 Cecil St, Singapore 049707"
87,Haw Par Villa Stn,Taxi Stand,103.7816222,1.283261006,"Haw Par Villa Stn, Singapore"
88,75 Telok Ayer St,Taxi Stop,103.8488385,1.282649782,"75 Telok Ayer St, Singapore 048463"
89,2 Sago Ln,Taxi Stand,103.8443583,1.281260537,"2 Sago Ln, Singapore"
90,101 Amoy St,Taxi Stand,103.8474459,1.281408978,"101 Amoy St, Singapore 069921"
91,100 Bukit Timah Rd,Taxi Stand,103.8475102,1.310559219,"100 Bukit Timah Rd, Singapore 229899"
92,250 South Bridge Rd,Taxi Stand,103.8452704,1.282390938,"250 South Bridge Rd, Singapore 058799"
93,33 Club St,Taxi Stand,103.8462512,1.282478991,"33 Club St, Singapore 069415"
94,17B Trengganu St,Taxi Stand,103.8440461,1.28287237,"17B Trengganu St, Singapore 058471"
95,7 Cross St,Taxi Stand,103.8489463,1.281847826,"7 Cross St, Singapore"
96,133 Cecil St,Taxi Stop,103.8487581,1.280225605,"133 Cecil St, Singapore 069535"
97,277C Compassvale Link,Taxi Stand,103.8931862,1.382652394,"277C Compassvale Link, Singapore 543277"
98,143 Cecil St,Taxi Stop,103.8479732,1.278939062,"143 Cecil St, Singapore 069542"
99,201 Yishun Ave 2,Taxi Stand,103.8330578,1.417090383,"201 Yishun Ave 2, Singapore 769092"
100,CQC6+PG Singapore,Taxi Stop,103.7612653,1.421862889,CQC6+PG Singapore
101,109 Mount Faber Rd,Taxi Pick Up / Drop Off,103.8192134,1.271550344,"109 Mount Faber Rd, Singapore 099203"
102,11 Jln Tan Tock Seng,Taxi Stand,103.8463209,1.321696066,"11 Jln Tan Tock Seng, Singapore 308433"
103,337 Thomson Rd,Taxi Stop,103.8415659,1.325126534,"337 Thomson Rd, Singapore 307676"
104,United Sq/Bef Novena Stn,Taxi Stand,103.8440525,1.317254413,"United Sq/Bef Novena Stn, Singapore"
105,Novena Stn,Taxi Stand,103.8435724,1.319629302,"Novena Stn, Singapore"
106,18 Raffles Quay,Taxi Stop,103.8505923,1.280202789,"18 Raffles Quay, Singapore 048582"
107,23 Serangoon Central,Taxi Stand,103.8729105,1.350892742,"23 Serangoon Central, Singapore 556083"
108,1 Fullerton Road,Taxi Stop,103.8537966,1.285631928,"1 Fullerton Road, #02-01, One Fullerton, 049213, Singapore 049213"
109,87 Cluny Park Rd,Taxi Stand,103.8144251,1.321468202,"87 Cluny Park Rd, Singapore 259590"
110,118 Rivervale Dr,Taxi Stand,103.9012429,1.385293286,"118 Rivervale Dr, Singapore 540118"
111,10408 Marine Parade Central,Taxi Stand,103.9050371,1.302232334,"10408 Marine Parade Central, Singapore"
112,3 Coleman St,Taxi Stand,103.8503478,1.291943805,"3 Coleman St, Singapore 179804"
113,1 Coleman St,Taxi Stop,103.8513963,1.290980847,"1 Coleman St, Singapore 179803"
114,67 Hill St,Taxi Stand,103.8494748,1.291819373,"67 Hill St, Singapore 179370"
115,109 North Bridge Rd,Taxi Stop,103.8504073,1.291125449,"109 North Bridge Rd, Singapore 179097"
116,7VV3+Q5 Singapore,Taxi Stop,103.8529066,1.294475761,7VV3+Q5 Singapore
117,Canning Rise,Taxi Stop,103.8481855,1.294356469,"Canning Rise, Fort Canning Park, Singapore"
118,303 New Bridge Rd,Taxi Stand,103.8416967,1.281754419,"303 New Bridge Rd, Singapore 050336"
119,331 New Bridge Rd,Taxi Stand,103.8406394,1.280380852,"331 New Bridge Rd, Singapore 088763"
120,Outram Rd,Taxi Stand,103.8391303,1.281254938,"Outram Rd, Outram Park, Singapore 169037"
121,118 Neil Rd,Taxi Stand,103.8418324,1.278866655,"118 Neil Rd, Singapore 088854"
122,100A Eu Tong Sen St,Taxi Stand,103.8409025,1.28203977,"100A Eu Tong Sen St, Singapore 059813"
123,18 Havelock Rd,Taxi Stop,103.8446994,1.287395489,"18 Havelock Rd, Singapore 059764"
124,1 Park Rd,Taxi Stand,103.8419793,1.284020502,"1 Park Rd, Singapore 059108"
125,133 New Bridge Rd,Taxi Stand,103.8448215,1.285536889,"133 New Bridge Rd, Singapore 059413"
126,Ubin First Stop,Taxi Stop,103.9296707,1.305492026,"Ubin First Stop,Block 1202 East Coast Seafood Centre, #01-02, Singapore 449881"
127,100 Upper Cross St,Taxi Stand,103.8431992,1.285404901,"100 Upper Cross St, Singapore 058360"
128,78 Airport Blvd.,Taxi Stop,103.9902847,1.361146082,"78 Airport Blvd., Singapore 819666"
129,95 Airport Blvd.,Taxi Stop,103.9885414,1.355824393,"95 Airport Blvd., Singapore 819648"
130,Opp Blk 109,Taxi Stand,103.8249061,1.274131784,"Opp Blk 109, Singapore"
131,1 Woodlands Square,Taxi Stand,103.7850772,1.436350427,"1 Woodlands Square, Singapore 738099"
132,10 Jurong East Street 12,Taxi Stand,103.7429793,1.332294793,"10 Jurong East Street 12, Jurong East, Singapore 609690"
133,810 Geylang Rd,Taxi Stand,103.8940528,1.31475239,"810 Geylang Rd, Singapore 409286"
134,55 Sims Ave E,Taxi Stand,103.9124284,1.320756596,"55 Sims Ave E, Singapore 416551"
135,8Q6W+25 Singapore,Taxi Stand,103.7954437,1.31005495,8Q6W+25 Singapore
136,372 Bukit Batok West Ave 5,Taxi Stand,103.7515032,1.358811409,"372 Bukit Batok West Ave 5, Singapore"
137,VivoCity Station,Taxi Stand,103.8231593,1.265104882,"VivoCity Station, Singapore"
138,271 Bukit Timah Road,Taxi Stand,103.8357898,1.31629199,"271 Bukit Timah Road, Balmoral Rd, #03-07, Singapore 259708"
139,250 Race Course Rd,Taxi Stand,103.8532207,1.312491499,"250 Race Course Rd, Singapore 218703"
140,41 Owen Rd,Taxi Stand,103.8535909,1.312629759,"41 Owen Rd, Singapore 210041"
141,5 Sengkang Square,Taxi Stand,103.8952683,1.392632541,"5 Sengkang Square, Singapore 545062"
142,1 Maritime Square,Taxi Stand,103.8206047,1.264630332,"1 Maritime Square, Singapore 099253"
143,70 Punggol Central,Taxi Stand,103.9022062,1.405508036,"70 Punggol Central, Singapore 828868"
144,539 Bedok North Street 3,Taxi Stand,103.9254694,1.331125569,"539 Bedok North Street 3, Singapore 460539"
145,22 Bayshore Rd,Taxi Stand,103.9389592,1.31217166,"22 Bayshore Rd, Singapore 469970"
146,Newton,Taxi Stop,103.8373414,1.313754454,"Newton, Singapore"
147,170 Upper Bukit Timah Rd,Taxi Stand,103.7757226,1.343191424,"170 Upper Bukit Timah Rd, Singapore 588179"
148,84 Upper Serangoon Rd,Taxi Stand,103.8693398,1.331614617,"84 Upper Serangoon Rd, Singapore 347667"
149,Stevens,Taxi Stop,103.8262859,1.319919208,"Stevens, Singapore"
150,140 Upper Bukit Timah Rd,Taxi Stand,103.7758115,1.342183735,"140 Upper Bukit Timah Rd, Singapore 588176"
151,61 Choa Chu Kang Dr,Taxi Stand,103.7475233,1.397157076,"61 Choa Chu Kang Dr, Singapore 689715"
152,8QQH+FH Singapore,Taxi Stand,103.7788833,1.338643631,8QQH+FH Singapore
153,604 Sembawang Rd,Taxi Stand,103.8245321,1.441774133,"604 Sembawang Rd, Singapore 758459"
154,55 Upper Serangoon Rd,Taxi Stand,103.8689372,1.332542751,"55 Upper Serangoon Rd, Singapore 347694"
155,200 Commonwealth Ave W,Taxi Stand,103.7791633,1.31140266,"200 Commonwealth Ave W, Singapore 138677"
156,253 Simei Street 1,Taxi Stand,103.9529113,1.342310322,"253 Simei Street 1, Block 253, Singapore 520253"
157,3150 Commonwealth Ave W,Taxi Stand,103.7654788,1.314116893,"3150 Commonwealth Ave W, Clementi, Singapore 129580"
158,20B Jln Leban,Taxi Stand,103.8292055,1.371915507,"20B Jln Leban, Singapore 577557"
159,80 Mandai Lake Rd,Taxi Stand,103.7905044,1.404724087,"80 Mandai Lake Rd, Singapore 729826"
160,378 Alexandra Rd,Taxi Stand,103.801362,1.286430091,"378 Alexandra Rd, Singapore 159964"
161,35 Dover Rd,Taxi Stand,103.7837221,1.298292021,"35 Dover Rd, Block 35, Singapore 130035"
162,375 Commonwealth Ave,Taxi Stand,103.798007,1.302408899,"375 Commonwealth Ave, Commonwealth, Singapore 149735"
163,301 Boon Lay Way,Taxi Stand,103.7069183,1.338952938,"301 Boon Lay Way, Boon Lay, Singapore 649846"
164,168 Queensway,Taxi Stand,103.8035132,1.288198506,"168 Queensway, Singapore"
165,9 Bras Basah Rd,Taxi Pick Up / Drop Off,103.8492552,1.298839068,"9 Bras Basah Rd, #01-01, Singapore 189559"
166,10 Jervois Rd,Taxi Stand,103.8251253,1.29334804,"10 Jervois Rd, Singapore 249000"
168,416 Eunos Rd 5,Taxi Stand,103.897691,1.317673511,"416 Eunos Rd 5, Singapore 400416"
169,506936,Taxi Stand,103.9868704,1.389690829,"506936, 31 Changi Village Rd, Singapore 506936"
170,211 Old Airport Rd,Taxi Stand,103.8892189,1.308604138,"211 Old Airport Rd, Singapore 397971"
171,693 New Upper Changi Rd,Taxi Stand,103.9460552,1.326711506,"693 New Upper Changi Rd, Singapore 467348"
172,27 Selegie Rd,Taxi Stand,103.8496896,1.300559298,"27 Selegie Rd, Singapore 188306"
173,413 Serangoon Central,Taxi Stand,103.8741423,1.349452012,"413 Serangoon Central, Singapore 550413"
174,Little India,Taxi Stand,103.8495878,1.305434685,"Little India, Singapore"
175,68 Orchard Rd,Taxi Stand,103.8452336,1.300542382,"68 Orchard Rd, Singapore 238839"
176,2 Handy Rd,Taxi Stand,103.8474828,1.299169577,"2 Handy Rd, Singapore 229233"
177,9 Penang Rd,Taxi Stand,103.8448976,1.298152768,"9 Penang Rd, Singapore 238459"
178,178 Clemenceau Ave,Taxi Stand,103.8439529,1.297018552,"178 Clemenceau Ave, Singapore 239926"
179,1A Short St,Taxi Stand,103.850958,1.302946842,"1A Short St, Singapore 188210"
180,151 Waterloo St,Taxi Stand,103.8526692,1.299994088,"151 Waterloo St, Singapore 187960"
181,70 Stamford Rd,Taxi Stand,103.8504052,1.296180305,"70 Stamford Rd, Singapore 178901"
182,90 Stamford Rd,Taxi Stop,103.8491559,1.297708995,"90 Stamford Rd, Singapore 178903"
183,80 Stamford Rd,Taxi Stop,103.8493193,1.297462319,"80 Stamford Rd, Singapore 178902"
184,76 Bras Basah Rd,Taxi Pick Up / Drop Off,103.8525932,1.295723358,"76 Bras Basah Rd, Singapore 189558"
185,8R4C+W2 Singapore,Taxi Stand,103.8201,1.307305418,8R4C+W2 Singapore
186,649A Jurong West Street 61,Taxi Stand,103.6976284,1.337759662,"649A Jurong West Street 61, Block 649A, Singapore 641649"
187,30 Bencoolen St,Taxi Stop,103.8502686,1.298437318,"30 Bencoolen St, Singapore 189621"
188,8Q4Q+H8 Singapore,Taxi Stand,103.7882537,1.306453899,8Q4Q+H8 Singapore
189,3 Mount Elizabeth,Taxi Pick Up / Drop Off,103.8359038,1.30464182,"3 Mount Elizabeth, Singapore 228510"
190,8V3G+GR Singapore,Taxi Stand,103.8770268,1.303801653,8V3G+GR Singapore
192,10 Mount Elizabeth,Taxi Stand,103.8354873,1.304362517,"10 Mount Elizabeth, Singapore 228510"
193,28 Cairnhill Rd,Taxi Stop,103.837644,1.303434339,"28 Cairnhill Rd, Singapore 229656"
194,270 Orchard Rd,Taxi Stand,103.8361832,1.303792886,"270 Orchard Rd, Singapore 238857"
195,298 Orchard Rd,Taxi Stand,103.8338005,1.304194087,"298 Orchard Rd, Singapore 238858"
196,8R4M+X8 Singapore,Taxi Stand,103.8333484,1.307408007,8R4M+X8 Singapore
197,21 Mount Elizabeth,Taxi Pick Up / Drop Off,103.8355946,1.307161324,"21 Mount Elizabeth, Singapore 228516"
198,Grange Rd,Taxi Pick Up / Drop Off,103.8368235,1.301573952,"Grange Rd, 8, Singapore 239695"
199,Opp Ngee Ann City,Taxi Stand,103.8344144,1.30230536,"Opp Ngee Ann City, Singapore"
200,313 Orchard Rd,Taxi Pick Up / Drop Off,103.8358037,1.302023073,"313 Orchard Rd, Singapore 238895"
201,435 Orchard Rd,Taxi Stand,103.8328703,1.30376588,"435 Orchard Rd, Singapore 238877"
202,115 Penang Rd,Taxi Stand,103.8423932,1.299804525,"115 Penang Rd, Singapore"
203,18-16 Commonwealth Ave,Taxi Stand,103.8064059,1.294521229,"18-16 Commonwealth Ave, Singapore"
204,500G Upper Bukit Timah Rd,Taxi Stop,103.7672205,1.362544489,"500G Upper Bukit Timah Rd, Singapore 678107"
205,10 Cashew Rd,Taxi Stand,103.7641509,1.370277228,"10 Cashew Rd, Cashew MRT Station (Downtown Line), Singapore 679692"
206,500 Upper Bukit Timah Rd,Taxi Stop,103.76762,1.362515908,"500 Upper Bukit Timah Rd, Singapore 678108"
207,15 Tampines Central 1,Taxi Stand,103.9426072,1.354386362,"15 Tampines Central 1, Singapore"
208,896 Dunearn Road,Taxi Stand,103.7830711,1.336325736,"896 Dunearn Road, #03-01, Sime Darby Centre Singapore 589472, Singapore"
209,21 Changi South Ave 1,Taxi Pick Up / Drop Off,103.9614085,1.334034081,"21 Changi South Ave 1, Expo, Singapore"
210,72 Geylang Bahru,Taxi Stand,103.8711599,1.321466887,"72 Geylang Bahru, Singapore 330072"
211,Bukit Timah Rd,Taxi Stop,103.7832418,1.335773115,"Bukit Timah Rd, King Albert Park, Singapore"
212,Bedok Reservoir,Taxi Stand,103.9333949,1.33660992,"Bedok Reservoir, Singapore"
213,8PQ4+8R Singapore,Taxi Stop,103.7071156,1.338334586,8PQ4+8R Singapore
214,900 Upper Serangoon Rd,Taxi Stand,103.8845896,1.359910429,"900 Upper Serangoon Rd, Kovan, Singapore 534799"
216,6 Expo Dr,Taxi Stand,103.9609218,1.335932935,"6 Expo Dr, Singapore"
217,Tanah Merah Stn Exit B,Taxi Stop,103.9456557,1.327275921,"Tanah Merah Stn Exit B, Singapore"
218,Opp Mattar Stn Exit B,Taxi Stop,103.8838682,1.325877279,"Opp Mattar Stn Exit B, Singapore"
219,Opp Mattar Stn Exit A,Taxi Stop,103.8831434,1.327412252,"Opp Mattar Stn Exit A, Singapore"
220,179 River Valley Rd,Taxi Stand,103.8441954,1.292300894,"179 River Valley Rd, Singapore 179033"
221,170 River Valley Rd,Taxi Stand,103.8443268,1.292869698,"170 River Valley Rd, Singapore 179038"
222,802 Tampines Ave 4,Taxi Stop,103.9382719,1.345780875,"802 Tampines Ave 4, Singapore 520802"
223,Tampines West,Taxi Stop,103.939138,1.344909722,"Tampines West, Singapore"
224,50A Bencoolen St,Taxi Stand,103.8504445,1.299135715,"50A Bencoolen St, Singapore 189629"
225,658 Jln Damai,Taxi Stand,103.9091257,1.334738445,"658 Jln Damai, Singapore 410663"
226,662 Jln Damai,Taxi Stand,103.9084544,1.334916458,"662 Jln Damai, Block 662, Singapore 410662"
227,394 Tampines Ave 7,Taxi Stand,103.9544901,1.356366606,"394 Tampines Ave 7, Tampines East, Singapore 520394"
228,Ubi,Taxi Stand,103.8989286,1.329896612,"Ubi, Singapore"
229,Bedok Nth Stn Exit B,Taxi Stop,103.9187312,1.334441391,"Bedok Nth Stn Exit B, Singapore"
231,651 Bedok North Rd,Taxi Stop,103.9181783,1.335128744,"651 Bedok North Rd, Bedok North, Singapore"
232,City Hall Stn Exit B,Taxi Stand,103.8514216,1.29278856,"City Hall Stn Exit B, Singapore"
233,66A Circuit Rd,Taxi Stand,103.888472,1.326185256,"66A Circuit Rd, Singapore 371066"
234,70 Ave 7 Admiralty MRT Station,Taxi Stand,103.801215,1.440947183,"70 Ave 7 Admiralty MRT Station, Singapore 738344"
235,876 Upper Serangoon Rd,Taxi Stand,103.8846255,1.359559487,"876 Upper Serangoon Rd, Singapore 534702"
236,35 Perak Rd,Taxi Pick Up / Drop Off,103.8530554,1.304296291,"35 Perak Rd, Singapore 208151"
237,Jalan Besar,Taxi Stand,103.8554961,1.305867283,"Jalan Besar, Singapore"
238,Queen Street,Taxi Stand,103.8560788,1.30363755,"Queen Street, Singapore, Singapore"
239,Rochor,Taxi Pick Up / Drop Off,103.8526067,1.303383948,"Rochor, Singapore"
240,171B Bencoolen St,Taxi Stop,103.8523767,1.301500522,"171B Bencoolen St, Singapore 189641"
241,6 Telok Blangah Cres,Taxi Stop,103.8183615,1.277874312,"6 Telok Blangah Cres, Singapore 090006"
242,51 Cuppage Rd,Taxi Stop,103.8399748,1.302682719,"51 Cuppage Rd, Singapore 229469"
243,22 Kramat Ln,Taxi Stand,103.8420887,1.300976142,"22 Kramat Ln, Singapore 228774"
244,3 Killiney Rd,Taxi Stand,103.8404106,1.300343668,"3 Killiney Rd, Singapore 239519"
245,23 Church St,Taxi Pick Up / Drop Off,103.84891,1.284303429,"23 Church St, Singapore 049481"
246,930 Yishun Ave 2,Taxi Stand,103.8351337,1.428678618,"930 Yishun Ave 2, Singapore 769093"
247,1 Gopeng St,Taxi Stand,103.843248,1.275871707,"1 Gopeng St, Singapore 078862"
248,17 Stadium Rd,Taxi Stand,103.872138,1.304704085,"17 Stadium Rd, Singapore 397720"
249,18D Holland Dr,Taxi Stand,103.7929733,1.310061936,"18D Holland Dr, Singapore 275018"
250,95 Bencoolen St,Taxi Stand,103.8511252,1.299987282,"95 Bencoolen St, Singapore 189652"
251,38 Toa Payoh Rise,Taxi Stand,103.8394626,1.33774654,"38 Toa Payoh Rise, Singapore 298113"
252,8 Marina Blvd,Taxi Stand,103.8521767,1.281127867,"8 Marina Blvd, One Raffles Quay, Singapore 018981"
253,68 Tg Pagar Rd,Taxi Stand,103.8438413,1.27880264,"68 Tg Pagar Rd, Singapore 088489"
254,Woodlands,Taxi Stand,103.7696006,1.443652173,"Woodlands, Singapore"
255,9X4P+2P Singapore,Taxi Stop,103.9867632,1.355080208,9X4P+2P Singapore
256,3000 Ang Mo Kio Ave 8,Taxi Stand,103.8443709,1.382114373,"3000 Ang Mo Kio Ave 8, Yio Chu Kang MRT Station, Singapore 569813"
257,2450 Ang Mo Kio Ave 8,Taxi Stand,103.8493925,1.369924474,"2450 Ang Mo Kio Ave 8, Singapore 569811"
258,Sembawang,Taxi Stand,103.8202686,1.449385611,"Sembawang, Singapore"
259,9-11 Bishan Pl,Taxi Stand,103.8491368,1.350751624,"9-11 Bishan Pl, Singapore"
260,138 Binchang Rise,Taxi Stand,103.8477562,1.351498709,"138 Binchang Rise, Singapore 579969"
261,77 Binchang Rise,Taxi Stand,103.8481535,1.351765338,"77 Binchang Rise, Singapore 579970"
262,301 Lor 6 Toa Payoh,Taxi Stand,103.8497314,1.331196911,"301 Lor 6 Toa Payoh, Singapore 319392"
263,381 Lor 1 Toa Payoh,Taxi Stand,103.8461003,1.341067771,"381 Lor 1 Toa Payoh, Braddell, Singapore 319758"
264,158 Toa Payoh Central,Taxi Stand,103.8503708,1.33420058,"158 Toa Payoh Central, Singapore"
265,301 Upper Thomson Rd,Taxi Stand,103.8310827,1.354966515,"301 Upper Thomson Rd, Singapore 574408"
266,900 Serangoon Rd,Taxi Stand,103.8619218,1.319787144,"900 Serangoon Rd, Boon Keng, Singapore 328260"
267,100 North Buona Vista Rd,Taxi Stand,103.7904977,1.306668334,"100 North Buona Vista Rd, Buona Vista, Singapore 139349"
269,2 Finlayson Green,Taxi Stand,103.8516133,1.281828262,"2 Finlayson Green, Singapore 049247"
271,Lakeside Stn,Taxi Stand,103.7204792,1.344415766,"Lakeside Stn, Singapore"
272,541 Orchard Rd,Taxi Stand,103.830427,1.305146439,"541 Orchard Rd, Singapore 238881"
273,126 Tiong Bahru Rd,Taxi Stand,103.8173805,1.289049254,"126 Tiong Bahru Rd, Singapore 168732"
274,151 Tanglin Rd,Taxi Stand,103.8241553,1.305217004,"151 Tanglin Rd, Singapore 247932"
275,8 Chatsworth Rd,Taxi Stand,103.8226396,1.299919296,"8 Chatsworth Rd, Singapore 249762"
276,165 Jalan Bukit Merah,Taxi Stand,103.8168784,1.28285625,"165 Jalan Bukit Merah, Singapore 150165"
277,182 Stirling Rd,Taxi Stand,103.8053631,1.295244089,"182 Stirling Rd, Block 182, Singapore 140182"
279,317 Outram Rd,Taxi Stand,103.8347489,1.28886465,"317 Outram Rd, Singapore"
280,209 New Upper Changi Rd,Taxi Stand,103.9314889,1.32447984,"209 New Upper Changi Rd, Singapore 460209"
281,2 Jurong East Central 1,Taxi Stand,103.740593,1.333548423,"2 Jurong East Central 1, Singapore 609731"
282,400 Upper Serangoon Rd,Taxi Stand,103.8705211,1.339024583,"400 Upper Serangoon Rd, Singapore 347695"
283,15 Yishun Central 1,Taxi Stand,103.8367616,1.429366097,"15 Yishun Central 1, Singapore"
284,175 Lor 2 Toa Payoh,Taxi Stand,103.8470002,1.333645847,"175 Lor 2 Toa Payoh, Singapore 310175"
285,91 Joo Koon Cir,Taxi Stand,103.6784722,1.327583196,"91 Joo Koon Cir, Singapore 629116"
286,3 Stadium Walk,Taxi Stand,103.8758116,1.301346803,"3 Stadium Walk, Singapore 397692"
287,Convention Centre,Taxi Stand,103.7779322,1.311560702,"Convention Centre, Singapore"
288,Sengkang MRT Exit D Bus Stop,Taxi Stand,103.8952282,1.390703768,"Sengkang MRT Exit D Bus Stop, Singapore"
289,Opp Sun Plaza,Taxi Stop,103.8191026,1.448048222,"Opp Sun Plaza, Sembawang Dr, Singapore"
290,11 Tanjong Katong Rd,Taxi Stand,103.8943086,1.314716803,"11 Tanjong Katong Rd, Singapore 437157"
291,151 Boon Lay Way,Taxi Stand,103.7325795,1.342599035,"151 Boon Lay Way, Chinese Garden, Singapore 609959"
292,7QMJ+FG Singapore,Taxi Stand,103.7812878,1.283690916,7QMJ+FG Singapore
293,3b Clarke Quay,Taxi Stand,103.8449558,1.290726155,"3b Clarke Quay, Singapore 179021"
294,S'pore Discovery Ctr,Taxi Stand,103.6784501,1.3307523,"S'pore Discovery Ctr, Singapore"
295,Blk 19,Taxi Stand,103.9148551,1.305170065,"Blk 19, Singapore"
296,31 Marina Coastal Dr,Taxi Stand,103.8621529,1.270660065,"31 Marina Coastal Dr, Singapore 018988"
297,9 Yio Chu Kang Rd,Taxi Stand,103.8771242,1.354638543,"9 Yio Chu Kang Rd, Space@Kovan #01-35, Singapore 545523"
298,5 Clarke Quay,Taxi Pick Up / Drop Off,103.8449881,1.291143781,"5 Clarke Quay, Singapore 179884"
299,60 Paya Lebar Rd,Taxi Stand,103.8930787,1.31894514,"60 Paya Lebar Rd, Singapore 409051"
300,267 Serangoon Ave 3,Taxi Stand,103.8706294,1.353356221,"267 Serangoon Ave 3, Singapore 550267"
301,71 Woodlands Ave 3,Taxi Stand,103.7737313,1.432411386,"71 Woodlands Ave 3, Singapore 739044"
302,Paya Lebar Stn Exit C,Taxi Stand,103.8918209,1.318256397,"Paya Lebar Stn Exit C, Singapore"
303,587 Upper Serangoon Rd,Taxi Stand,103.8743152,1.350660184,"587 Upper Serangoon Rd, Singapore 534564"
305,315 New Upper Changi Rd,Taxi Stand,103.9295066,1.323638615,"315 New Upper Changi Rd, Singapore 467347"
306,90 Bartley Rd,Taxi Stand,103.8806573,1.342254245,"90 Bartley Rd, Singapore 539788"
307,Lorong Chuan,Taxi Stand,103.864617,1.351512153,"Lorong Chuan, Singapore"
308,OUE Bayfront,Taxi Stop,103.8529089,1.283377046,"OUE Bayfront, Collyer Quay, Singapore"
309,21 Geylang East Central,Taxi Stand,103.8873168,1.319160498,"21 Geylang East Central, Singapore 389707"
310,293 Holland Rd,Taxi Stand,103.785952,1.31775099,"293 Holland Rd, Singapore 278628"
311,Bugis Cube,Taxi Stop,103.8554618,1.298443189,"Bugis Cube, Singapore 189768"
312,80 Lor 25A Geylang,Taxi Stand,103.8831562,1.316013,"80 Lor 25A Geylang, Singapore 388260"
313,Boon Lay,Taxi Stand,103.7066236,1.338298368,"Boon Lay,Singapore, Singapore"
314,277 Orchard Rd,Taxi Stand,103.839239,1.300378066,"277 Orchard Rd, Singapore 238858"
315,2 Sarkies Rd,Taxi Stand,103.8371265,1.314496129,"2 Sarkies Rd, Singapore 258117"
316,Bedok Stn,Taxi Stand,103.9293778,1.324158077,"Bedok Stn, Singapore"
317,1 Venture Ave,Taxi Stand,103.7441867,1.331691603,"1 Venture Ave, Singapore 608521"
318,32 Stadium Walk,Taxi Stop,103.8754317,1.300974793,"32 Stadium Walk, Singapore 397695"
319,Bukit Timah Road 266268,Taxi Stand,103.8080988,1.32618484,"Bukit Timah Road 266268, 651 Tan Kah Kee, Singapore"
320,Tan Kah Kee Stn,Taxi Stand,103.8075298,1.325743706,"Tan Kah Kee Stn, Singapore"
321,491 Bukit Timah Rd,Taxi Stop,103.8158046,1.32264354,"491 Bukit Timah Rd, Singapore 259777"
322,7A Tuas Rd,Taxi Stand,103.660256,1.318913717,"7A Tuas Rd, Gul Circle, Singapore 637288"
323,Tuas West Rd Stn Exit B,Taxi Stand,103.6398248,1.329524991,"Tuas West Rd Stn Exit B, Singapore"
324,Gul Circle Stn Exit B,Taxi Stand,103.659505,1.318960323,"Gul Circle Stn Exit B, Singapore"
326,135 Pioneer Rd,Taxi Stand,103.6396339,1.330287705,"135 Pioneer Rd, EW32 Tuas West Road MRT Station, Singapore 639589"
327,1 Tuas Ave 2,Taxi Stand,103.6495442,1.320962975,"1 Tuas Ave 2, Singapore 639441"
329,950 Upper Bukit Timah Rd,Taxi Stand,103.7613649,1.37881739,"950 Upper Bukit Timah Rd, Singapore 678213"
330,1 Rochor Canal Rd,Taxi Stop,103.8531661,1.303415104,"1 Rochor Canal Rd, Sim Lim Square, Singapore 188504"
331,71 Marine Dr,Taxi Stand,103.9089767,1.30488199,"71 Marine Dr, Block 71, Singapore 440071"
332,26 Bendemeer Rd,Taxi Stand,103.8633766,1.318336701,"26 Bendemeer Rd, Singapore 330026"
333,9VMM+8X Singapore,Taxi Stand,103.884955,1.383315798,9VMM+8X Singapore
334,4 Horne Rd,Taxi Stand,103.8628696,1.307895985,"4 Horne Rd, Singapore 209058"
335,10 Kallang Rd,Taxi Stop,103.8626187,1.306747313,"10 Kallang Rd, Singapore 208718"
336,13 Whampoa Dr,Taxi Stand,103.854956,1.322747509,"13 Whampoa Dr, Singapore 320090"
337,363 Balestier Rd,Taxi Stand,103.8508013,1.324691924,"363 Balestier Rd, Singapore 329784"
338,100 Jln Sultan,Taxi Stand,103.8614008,1.303317347,"100 Jln Sultan, Sultan Plaza, Singapore 199001"
339,20 Republic Ave,Taxi Stand,103.8635384,1.299802974,"20 Republic Ave, Nicoll Highway, Singapore 038970"
340,Golden Mile Tower,Taxi Stand,103.8649488,1.302936879,"Golden Mile Tower, Beach Road, Singapore"
341,10 Bukit Panjang Rd,Taxi Pick Up / Drop Off,103.7618431,1.379134719,"10 Bukit Panjang Rd, Singapore 679897"
343,192 Kitchener Rd,Taxi Stop,103.8560297,1.310866692,"192 Kitchener Rd, Singapore 912107"
344,320 Serangoon Rd,Taxi Stand,103.8548866,1.311019212,"320 Serangoon Rd, Singapore 218108"
345,4 Hastings Rd,Taxi Stand,103.8516179,1.305252149,"4 Hastings Rd, Singapore 209151"
346,51 Scotts Rd,Taxi Stand,103.8375865,1.312200518,"51 Scotts Rd, #03-23, Singapore 228241"
347,60 Eu Tong Sen St,Taxi Stop,103.8442983,1.286272515,"60 Eu Tong Sen St, Singapore 059804"
348,Woodlands North,Taxi Stand,103.7851404,1.447924335,"Woodlands North, Singapore"
349,22 Telok Blangah Cres,Taxi Stand,103.8202538,1.27621903,"22 Telok Blangah Cres, Singapore 090022"
350,Upper Changi,Taxi Stop,103.9615463,1.341339887,"Upper Changi, Singapore"
351,685 Upper Changi Rd E,Taxi Stop,103.961343,1.341995727,"685 Upper Changi Rd E, Singapore 486819"
352,Canberra Link,Taxi Stand,103.8298354,1.443172008,"Canberra Link, Canberra, Singapore 753504"
354,894B Woodlands Drive 50,Taxi Stand,103.7889702,1.43626065,"894B Woodlands Drive 50, Block 894B, Singapore 731894"
